<?xml version="1.0" encoding="UTF-8"?>
<gpx version="1.1" creator="sigerst-import" xmlns="http://www.topografix.com/GPX/1/1">
  <trk>
    <name>altmann</name>
    <trkseg>
      <trkpt lat="47.20732" lon="9.35716"></trkpt>
      <trkpt lat="47.21111" lon="9.35654"></trkpt>
      <trkpt lat="47.21470" lon="9.35644"></trkpt>
      <trkpt lat="47.21583" lon="9.35630"></trkpt>
      <trkpt lat="47.21643" lon="9.35603"></trkpt>
      <trkpt lat="47.21752" lon="9.35617"></trkpt>
      <trkpt lat="47.21808" lon="9.35757"></trkpt>
      <trkpt lat="47.21927" lon="9.36184"></trkpt>
      <trkpt lat="47.22036" lon="9.36589"></trkpt>
      <trkpt lat="47.22147" lon="9.37044"></trkpt>
      <trkpt lat="47.22284" lon="9.37372"></trkpt>
      <trkpt lat="47.22320" lon="9.37533"></trkpt>
      <trkpt lat="47.22368" lon="9.37660"></trkpt>
      <trkpt lat="47.22435" lon="9.37853"></trkpt>
      <trkpt lat="47.22517" lon="9.37993"></trkpt>
      <trkpt lat="47.22607" lon="9.38120"></trkpt>
      <trkpt lat="47.22676" lon="9.38273"></trkpt>
      <trkpt lat="47.22727" lon="9.38470"></trkpt>
      <trkpt lat="47.22782" lon="9.38598"></trkpt>
      <trkpt lat="47.22887" lon="9.38756"></trkpt>
      <trkpt lat="47.22944" lon="9.38934"></trkpt>
      <trkpt lat="47.22975" lon="9.39093"></trkpt>
      <trkpt lat="47.23063" lon="9.39259"></trkpt>
      <trkpt lat="47.23104" lon="9.39423"></trkpt>
      <trkpt lat="47.23139" lon="9.39541"></trkpt>
      <trkpt lat="47.23198" lon="9.39697"></trkpt>
      <trkpt lat="47.23260" lon="9.39786"></trkpt>
      <trkpt lat="47.23319" lon="9.39870"></trkpt>
      <trkpt lat="47.23398" lon="9.40001"></trkpt>
      <trkpt lat="47.23497" lon="9.40093"></trkpt>
      <trkpt lat="47.23556" lon="9.40204"></trkpt>
      <trkpt lat="47.23593" lon="9.40294"></trkpt>
      <trkpt lat="47.23604" lon="9.40387"></trkpt>
      <trkpt lat="47.23672" lon="9.40525"></trkpt>
      <trkpt lat="47.23613" lon="9.40590"></trkpt>
      <trkpt lat="47.23742" lon="9.40332"></trkpt>
      <trkpt lat="47.23743" lon="9.40077"></trkpt>
      <trkpt lat="47.23702" lon="9.39767"></trkpt>
      <trkpt lat="47.23680" lon="9.39333"></trkpt>
      <trkpt lat="47.23609" lon="9.39006"></trkpt>
      <trkpt lat="47.23523" lon="9.38742"></trkpt>
      <trkpt lat="47.23475" lon="9.38557"></trkpt>
      <trkpt lat="47.23481" lon="9.38306"></trkpt>
      <trkpt lat="47.23502" lon="9.38069"></trkpt>
      <trkpt lat="47.23539" lon="9.37967"></trkpt>
      <trkpt lat="47.23568" lon="9.37841"></trkpt>
      <trkpt lat="47.23501" lon="9.37721"></trkpt>
      <trkpt lat="47.23444" lon="9.37530"></trkpt>
      <trkpt lat="47.23524" lon="9.37438"></trkpt>
      <trkpt lat="47.23583" lon="9.37480"></trkpt>
      <trkpt lat="47.23645" lon="9.37441"></trkpt>
      <trkpt lat="47.23662" lon="9.37253"></trkpt>
      <trkpt lat="47.23705" lon="9.37066"></trkpt>
      <trkpt lat="47.23722" lon="9.36933"></trkpt>
      <trkpt lat="47.23799" lon="9.36787"></trkpt>
      <trkpt lat="47.23924" lon="9.36802"></trkpt>
      <trkpt lat="47.24015" lon="9.36751"></trkpt>
      <trkpt lat="47.24065" lon="9.36803"></trkpt>
      <trkpt lat="47.24028" lon="9.36974"></trkpt>
      <trkpt lat="47.24059" lon="9.36704"></trkpt>
      <trkpt lat="47.24112" lon="9.36590"></trkpt>
      <trkpt lat="47.24235" lon="9.36578"></trkpt>
      <trkpt lat="47.24303" lon="9.36401"></trkpt>
      <trkpt lat="47.24268" lon="9.36151"></trkpt>
      <trkpt lat="47.24238" lon="9.36072"></trkpt>
      <trkpt lat="47.24225" lon="9.35885"></trkpt>
      <trkpt lat="47.24156" lon="9.35889"></trkpt>
      <trkpt lat="47.24095" lon="9.35776"></trkpt>
      <trkpt lat="47.24097" lon="9.35647"></trkpt>
      <trkpt lat="47.24008" lon="9.35547"></trkpt>
      <trkpt lat="47.23933" lon="9.35360"></trkpt>
      <trkpt lat="47.23883" lon="9.35113"></trkpt>
      <trkpt lat="47.23831" lon="9.35163"></trkpt>
      <trkpt lat="47.23736" lon="9.35102"></trkpt>
      <trkpt lat="47.23673" lon="9.35028"></trkpt>
      <trkpt lat="47.23656" lon="9.34963"></trkpt>
      <trkpt lat="47.23582" lon="9.34856"></trkpt>
      <trkpt lat="47.23510" lon="9.34732"></trkpt>
      <trkpt lat="47.23499" lon="9.34597"></trkpt>
      <trkpt lat="47.23432" lon="9.34458"></trkpt>
      <trkpt lat="47.23348" lon="9.34182"></trkpt>
      <trkpt lat="47.23300" lon="9.34063"></trkpt>
      <trkpt lat="47.23108" lon="9.33920"></trkpt>
      <trkpt lat="47.23076" lon="9.33757"></trkpt>
      <trkpt lat="47.22888" lon="9.33706"></trkpt>
      <trkpt lat="47.22622" lon="9.33372"></trkpt>
      <trkpt lat="47.22475" lon="9.33337"></trkpt>
      <trkpt lat="47.22020" lon="9.33200"></trkpt>
      <trkpt lat="47.21919" lon="9.33387"></trkpt>
      <trkpt lat="47.21776" lon="9.33676"></trkpt>
      <trkpt lat="47.21646" lon="9.34193"></trkpt>
      <trkpt lat="47.21518" lon="9.34408"></trkpt>
      <trkpt lat="47.21343" lon="9.34550"></trkpt>
      <trkpt lat="47.21229" lon="9.34737"></trkpt>
      <trkpt lat="47.21134" lon="9.35069"></trkpt>
      <trkpt lat="47.21027" lon="9.35121"></trkpt>
      <trkpt lat="47.20833" lon="9.35255"></trkpt>
      <trkpt lat="47.20696" lon="9.35262"></trkpt>
      <trkpt lat="47.20677" lon="9.35577"></trkpt>
      <trkpt lat="47.20732" lon="9.35716"></trkpt>
    </trkseg>
  </trk>
</gpx>
