<?xml version="1.0" encoding="UTF-8"?>
<gpx version="1.1" creator="sigerst-import" xmlns="http://www.topografix.com/GPX/1/1">
  <trk>
    <name>chreialpfirst</name>
    <trkseg>
      <trkpt lat="47.20724" lon="9.35706"></trkpt>
      <trkpt lat="47.20857" lon="9.35693"></trkpt>
      <trkpt lat="47.20998" lon="9.35608"></trkpt>
      <trkpt lat="47.21216" lon="9.35659"></trkpt>
      <trkpt lat="47.21441" lon="9.35654"></trkpt>
      <trkpt lat="47.21547" lon="9.35644"></trkpt>
      <trkpt lat="47.21601" lon="9.35616"></trkpt>
      <trkpt lat="47.21660" lon="9.35591"></trkpt>
      <trkpt lat="47.21739" lon="9.35608"></trkpt>
      <trkpt lat="47.21795" lon="9.35723"></trkpt>
      <trkpt lat="47.21899" lon="9.36103"></trkpt>
      <trkpt lat="47.22024" lon="9.36491"></trkpt>
      <trkpt lat="47.22148" lon="9.36984"></trkpt>
      <trkpt lat="47.22297" lon="9.37160"></trkpt>
      <trkpt lat="47.22347" lon="9.37359"></trkpt>
      <trkpt lat="47.22377" lon="9.37407"></trkpt>
      <trkpt lat="47.22402" lon="9.37383"></trkpt>
      <trkpt lat="47.22450" lon="9.37459"></trkpt>
      <trkpt lat="47.22497" lon="9.37525"></trkpt>
      <trkpt lat="47.22538" lon="9.37624"></trkpt>
      <trkpt lat="47.22602" lon="9.37728"></trkpt>
      <trkpt lat="47.22653" lon="9.37587"></trkpt>
      <trkpt lat="47.22659" lon="9.37464"></trkpt>
      <trkpt lat="47.22698" lon="9.37377"></trkpt>
      <trkpt lat="47.22731" lon="9.37481"></trkpt>
      <trkpt lat="47.22798" lon="9.37541"></trkpt>
      <trkpt lat="47.22894" lon="9.37615"></trkpt>
      <trkpt lat="47.22972" lon="9.37596"></trkpt>
      <trkpt lat="47.23036" lon="9.37550"></trkpt>
      <trkpt lat="47.23070" lon="9.37478"></trkpt>
      <trkpt lat="47.23154" lon="9.37425"></trkpt>
      <trkpt lat="47.23201" lon="9.37469"></trkpt>
      <trkpt lat="47.23291" lon="9.37505"></trkpt>
      <trkpt lat="47.23239" lon="9.37608"></trkpt>
      <trkpt lat="47.23297" lon="9.37620"></trkpt>
      <trkpt lat="47.23320" lon="9.37666"></trkpt>
      <trkpt lat="47.23358" lon="9.37743"></trkpt>
      <trkpt lat="47.23397" lon="9.37826"></trkpt>
      <trkpt lat="47.23420" lon="9.37909"></trkpt>
      <trkpt lat="47.23468" lon="9.37973"></trkpt>
      <trkpt lat="47.23499" lon="9.38084"></trkpt>
      <trkpt lat="47.23510" lon="9.38186"></trkpt>
      <trkpt lat="47.23485" lon="9.38275"></trkpt>
      <trkpt lat="47.23481" lon="9.38397"></trkpt>
      <trkpt lat="47.23461" lon="9.38492"></trkpt>
      <trkpt lat="47.23481" lon="9.38587"></trkpt>
      <trkpt lat="47.23515" lon="9.38688"></trkpt>
      <trkpt lat="47.23520" lon="9.38786"></trkpt>
      <trkpt lat="47.23557" lon="9.38876"></trkpt>
      <trkpt lat="47.23600" lon="9.38989"></trkpt>
      <trkpt lat="47.23645" lon="9.39132"></trkpt>
      <trkpt lat="47.23683" lon="9.39365"></trkpt>
      <trkpt lat="47.23699" lon="9.39565"></trkpt>
      <trkpt lat="47.23712" lon="9.39798"></trkpt>
      <trkpt lat="47.23735" lon="9.39995"></trkpt>
      <trkpt lat="47.23740" lon="9.40097"></trkpt>
      <trkpt lat="47.23754" lon="9.40234"></trkpt>
      <trkpt lat="47.23718" lon="9.40412"></trkpt>
      <trkpt lat="47.23668" lon="9.40521"></trkpt>
      <trkpt lat="47.23610" lon="9.40385"></trkpt>
      <trkpt lat="47.23573" lon="9.40355"></trkpt>
      <trkpt lat="47.23595" lon="9.40265"></trkpt>
      <trkpt lat="47.23549" lon="9.40191"></trkpt>
      <trkpt lat="47.23494" lon="9.40092"></trkpt>
      <trkpt lat="47.23405" lon="9.40036"></trkpt>
      <trkpt lat="47.23361" lon="9.39928"></trkpt>
      <trkpt lat="47.23317" lon="9.39866"></trkpt>
      <trkpt lat="47.23276" lon="9.39795"></trkpt>
      <trkpt lat="47.23206" lon="9.39730"></trkpt>
      <trkpt lat="47.23168" lon="9.39613"></trkpt>
      <trkpt lat="47.23130" lon="9.39508"></trkpt>
      <trkpt lat="47.23090" lon="9.39382"></trkpt>
      <trkpt lat="47.23064" lon="9.39263"></trkpt>
      <trkpt lat="47.22980" lon="9.39104"></trkpt>
      <trkpt lat="47.22927" lon="9.38953"></trkpt>
      <trkpt lat="47.22916" lon="9.38828"></trkpt>
      <trkpt lat="47.22839" lon="9.38711"></trkpt>
      <trkpt lat="47.22770" lon="9.38580"></trkpt>
      <trkpt lat="47.22716" lon="9.38450"></trkpt>
      <trkpt lat="47.22684" lon="9.38293"></trkpt>
      <trkpt lat="47.22616" lon="9.38146"></trkpt>
      <trkpt lat="47.22527" lon="9.38020"></trkpt>
      <trkpt lat="47.22457" lon="9.37886"></trkpt>
      <trkpt lat="47.22382" lon="9.37721"></trkpt>
      <trkpt lat="47.22331" lon="9.37578"></trkpt>
      <trkpt lat="47.22294" lon="9.37415"></trkpt>
      <trkpt lat="47.22228" lon="9.37225"></trkpt>
      <trkpt lat="47.22127" lon="9.36999"></trkpt>
      <trkpt lat="47.22028" lon="9.36524"></trkpt>
      <trkpt lat="47.21906" lon="9.36129"></trkpt>
      <trkpt lat="47.21803" lon="9.35743"></trkpt>
      <trkpt lat="47.21743" lon="9.35611"></trkpt>
      <trkpt lat="47.21674" lon="9.35583"></trkpt>
      <trkpt lat="47.21605" lon="9.35618"></trkpt>
      <trkpt lat="47.21554" lon="9.35639"></trkpt>
      <trkpt lat="47.21448" lon="9.35652"></trkpt>
      <trkpt lat="47.21251" lon="9.35653"></trkpt>
      <trkpt lat="47.21004" lon="9.35614"></trkpt>
      <trkpt lat="47.20867" lon="9.35695"></trkpt>
      <trkpt lat="47.20734" lon="9.35715"></trkpt>
      <trkpt lat="47.20724" lon="9.35706"></trkpt>
    </trkseg>
  </trk>
</gpx>
