<?xml version="1.0" encoding="UTF-8"?>
<gpx version="1.1" creator="sigerst-import" xmlns="http://www.topografix.com/GPX/1/1">
  <trk>
    <name>fros</name>
    <trkseg>
      <trkpt lat="47.20535" lon="9.35231"></trkpt>
      <trkpt lat="47.20477" lon="9.35255"></trkpt>
      <trkpt lat="47.20466" lon="9.35236"></trkpt>
      <trkpt lat="47.20452" lon="9.35107"></trkpt>
      <trkpt lat="47.20499" lon="9.34824"></trkpt>
      <trkpt lat="47.20514" lon="9.34636"></trkpt>
      <trkpt lat="47.20511" lon="9.34609"></trkpt>
      <trkpt lat="47.20506" lon="9.34536"></trkpt>
      <trkpt lat="47.20500" lon="9.34342"></trkpt>
      <trkpt lat="47.20511" lon="9.33974"></trkpt>
      <trkpt lat="47.20582" lon="9.33746"></trkpt>
      <trkpt lat="47.20629" lon="9.33572"></trkpt>
      <trkpt lat="47.20702" lon="9.33426"></trkpt>
      <trkpt lat="47.20734" lon="9.33344"></trkpt>
      <trkpt lat="47.20755" lon="9.33285"></trkpt>
      <trkpt lat="47.20776" lon="9.33264"></trkpt>
      <trkpt lat="47.20801" lon="9.33242"></trkpt>
      <trkpt lat="47.20820" lon="9.33237"></trkpt>
      <trkpt lat="47.20847" lon="9.33227"></trkpt>
      <trkpt lat="47.20878" lon="9.33252"></trkpt>
      <trkpt lat="47.20886" lon="9.33248"></trkpt>
      <trkpt lat="47.20905" lon="9.33154"></trkpt>
      <trkpt lat="47.20934" lon="9.33088"></trkpt>
      <trkpt lat="47.20952" lon="9.33019"></trkpt>
      <trkpt lat="47.21002" lon="9.32909"></trkpt>
      <trkpt lat="47.21052" lon="9.32942"></trkpt>
      <trkpt lat="47.21061" lon="9.33027"></trkpt>
      <trkpt lat="47.21077" lon="9.33120"></trkpt>
      <trkpt lat="47.21070" lon="9.33267"></trkpt>
      <trkpt lat="47.21095" lon="9.33347"></trkpt>
      <trkpt lat="47.21099" lon="9.33442"></trkpt>
      <trkpt lat="47.21109" lon="9.33555"></trkpt>
      <trkpt lat="47.21112" lon="9.33561"></trkpt>
      <trkpt lat="47.21145" lon="9.33544"></trkpt>
      <trkpt lat="47.21163" lon="9.33539"></trkpt>
      <trkpt lat="47.21180" lon="9.33551"></trkpt>
      <trkpt lat="47.21195" lon="9.33536"></trkpt>
      <trkpt lat="47.21226" lon="9.33490"></trkpt>
      <trkpt lat="47.21239" lon="9.33559"></trkpt>
      <trkpt lat="47.21218" lon="9.33660"></trkpt>
      <trkpt lat="47.21224" lon="9.33800"></trkpt>
      <trkpt lat="47.21254" lon="9.33860"></trkpt>
      <trkpt lat="47.21292" lon="9.33892"></trkpt>
      <trkpt lat="47.21312" lon="9.33895"></trkpt>
      <trkpt lat="47.21325" lon="9.33907"></trkpt>
      <trkpt lat="47.21331" lon="9.33915"></trkpt>
      <trkpt lat="47.21354" lon="9.33934"></trkpt>
      <trkpt lat="47.21380" lon="9.33971"></trkpt>
      <trkpt lat="47.21440" lon="9.33949"></trkpt>
      <trkpt lat="47.21546" lon="9.33961"></trkpt>
      <trkpt lat="47.21635" lon="9.33967"></trkpt>
      <trkpt lat="47.21668" lon="9.33970"></trkpt>
      <trkpt lat="47.21667" lon="9.33973"></trkpt>
      <trkpt lat="47.21669" lon="9.33971"></trkpt>
      <trkpt lat="47.21667" lon="9.33974"></trkpt>
      <trkpt lat="47.21666" lon="9.33977"></trkpt>
      <trkpt lat="47.21655" lon="9.34258"></trkpt>
      <trkpt lat="47.21616" lon="9.34328"></trkpt>
      <trkpt lat="47.21556" lon="9.34358"></trkpt>
      <trkpt lat="47.21536" lon="9.34376"></trkpt>
      <trkpt lat="47.21513" lon="9.34417"></trkpt>
      <trkpt lat="47.21493" lon="9.34415"></trkpt>
      <trkpt lat="47.21433" lon="9.34441"></trkpt>
      <trkpt lat="47.21395" lon="9.34494"></trkpt>
      <trkpt lat="47.21399" lon="9.34563"></trkpt>
      <trkpt lat="47.21442" lon="9.34642"></trkpt>
      <trkpt lat="47.21431" lon="9.34712"></trkpt>
      <trkpt lat="47.21433" lon="9.34727"></trkpt>
      <trkpt lat="47.21440" lon="9.34738"></trkpt>
      <trkpt lat="47.21453" lon="9.34795"></trkpt>
      <trkpt lat="47.21385" lon="9.34872"></trkpt>
      <trkpt lat="47.21339" lon="9.34994"></trkpt>
      <trkpt lat="47.21345" lon="9.35033"></trkpt>
      <trkpt lat="47.21352" lon="9.35032"></trkpt>
      <trkpt lat="47.21383" lon="9.34989"></trkpt>
      <trkpt lat="47.21437" lon="9.34961"></trkpt>
      <trkpt lat="47.21486" lon="9.34929"></trkpt>
      <trkpt lat="47.21494" lon="9.34923"></trkpt>
      <trkpt lat="47.21497" lon="9.34923"></trkpt>
      <trkpt lat="47.21503" lon="9.34921"></trkpt>
      <trkpt lat="47.21524" lon="9.34958"></trkpt>
      <trkpt lat="47.21498" lon="9.34973"></trkpt>
      <trkpt lat="47.21478" lon="9.35022"></trkpt>
      <trkpt lat="47.21446" lon="9.35075"></trkpt>
      <trkpt lat="47.21458" lon="9.35118"></trkpt>
      <trkpt lat="47.21459" lon="9.35119"></trkpt>
    </trkseg>
  </trk>
</gpx>
