<?xml version="1.0" encoding="UTF-8"?>
<gpx version="1.1" creator="sigerst-import" xmlns="http://www.topografix.com/GPX/1/1">
  <trk>
    <name>gamserberg</name>
    <trkseg>
      <trkpt lat="47.21128" lon="9.44873"></trkpt>
      <trkpt lat="47.21112" lon="9.44772"></trkpt>
      <trkpt lat="47.21121" lon="9.44705"></trkpt>
      <trkpt lat="47.21153" lon="9.44614"></trkpt>
      <trkpt lat="47.21147" lon="9.44569"></trkpt>
      <trkpt lat="47.21190" lon="9.44459"></trkpt>
      <trkpt lat="47.21186" lon="9.44362"></trkpt>
      <trkpt lat="47.21211" lon="9.44257"></trkpt>
      <trkpt lat="47.21245" lon="9.44206"></trkpt>
      <trkpt lat="47.21235" lon="9.44182"></trkpt>
      <trkpt lat="47.21193" lon="9.44103"></trkpt>
      <trkpt lat="47.21187" lon="9.43947"></trkpt>
      <trkpt lat="47.21184" lon="9.43911"></trkpt>
      <trkpt lat="47.21189" lon="9.43829"></trkpt>
      <trkpt lat="47.21214" lon="9.43824"></trkpt>
      <trkpt lat="47.21271" lon="9.43864"></trkpt>
      <trkpt lat="47.21291" lon="9.43850"></trkpt>
      <trkpt lat="47.21289" lon="9.43766"></trkpt>
      <trkpt lat="47.21300" lon="9.43726"></trkpt>
      <trkpt lat="47.21325" lon="9.43707"></trkpt>
      <trkpt lat="47.21320" lon="9.43682"></trkpt>
      <trkpt lat="47.21289" lon="9.43695"></trkpt>
      <trkpt lat="47.21308" lon="9.43667"></trkpt>
      <trkpt lat="47.21329" lon="9.43623"></trkpt>
      <trkpt lat="47.21296" lon="9.43647"></trkpt>
      <trkpt lat="47.21241" lon="9.43683"></trkpt>
      <trkpt lat="47.21205" lon="9.43670"></trkpt>
      <trkpt lat="47.21159" lon="9.43588"></trkpt>
      <trkpt lat="47.21138" lon="9.43559"></trkpt>
      <trkpt lat="47.21068" lon="9.43574"></trkpt>
      <trkpt lat="47.21047" lon="9.43565"></trkpt>
      <trkpt lat="47.21045" lon="9.43518"></trkpt>
      <trkpt lat="47.21060" lon="9.43447"></trkpt>
      <trkpt lat="47.21040" lon="9.43411"></trkpt>
      <trkpt lat="47.21059" lon="9.43387"></trkpt>
      <trkpt lat="47.21107" lon="9.43383"></trkpt>
      <trkpt lat="47.21192" lon="9.43316"></trkpt>
      <trkpt lat="47.21222" lon="9.43273"></trkpt>
      <trkpt lat="47.21224" lon="9.43249"></trkpt>
      <trkpt lat="47.21164" lon="9.43218"></trkpt>
      <trkpt lat="47.21115" lon="9.43171"></trkpt>
      <trkpt lat="47.21066" lon="9.43179"></trkpt>
      <trkpt lat="47.20988" lon="9.43155"></trkpt>
      <trkpt lat="47.20937" lon="9.43148"></trkpt>
      <trkpt lat="47.20880" lon="9.43142"></trkpt>
      <trkpt lat="47.20810" lon="9.43139"></trkpt>
      <trkpt lat="47.20761" lon="9.43126"></trkpt>
      <trkpt lat="47.20701" lon="9.43080"></trkpt>
      <trkpt lat="47.20662" lon="9.43063"></trkpt>
      <trkpt lat="47.20690" lon="9.43035"></trkpt>
      <trkpt lat="47.20691" lon="9.42994"></trkpt>
      <trkpt lat="47.20674" lon="9.42946"></trkpt>
      <trkpt lat="47.20697" lon="9.42934"></trkpt>
      <trkpt lat="47.20748" lon="9.42957"></trkpt>
      <trkpt lat="47.20800" lon="9.42934"></trkpt>
      <trkpt lat="47.20861" lon="9.42937"></trkpt>
      <trkpt lat="47.20924" lon="9.42914"></trkpt>
      <trkpt lat="47.20935" lon="9.42861"></trkpt>
      <trkpt lat="47.20878" lon="9.42797"></trkpt>
      <trkpt lat="47.20821" lon="9.42769"></trkpt>
      <trkpt lat="47.20736" lon="9.42748"></trkpt>
      <trkpt lat="47.20661" lon="9.42677"></trkpt>
      <trkpt lat="47.20619" lon="9.42647"></trkpt>
      <trkpt lat="47.20526" lon="9.42540"></trkpt>
      <trkpt lat="47.20494" lon="9.42488"></trkpt>
      <trkpt lat="47.20430" lon="9.42508"></trkpt>
      <trkpt lat="47.20399" lon="9.42496"></trkpt>
      <trkpt lat="47.20290" lon="9.42428"></trkpt>
      <trkpt lat="47.20214" lon="9.42389"></trkpt>
      <trkpt lat="47.20159" lon="9.42319"></trkpt>
      <trkpt lat="47.20145" lon="9.42246"></trkpt>
      <trkpt lat="47.20117" lon="9.42165"></trkpt>
      <trkpt lat="47.20079" lon="9.42055"></trkpt>
      <trkpt lat="47.20084" lon="9.41993"></trkpt>
    </trkseg>
  </trk>
</gpx>
