<?xml version="1.0" encoding="UTF-8"?>
<gpx version="1.1" creator="komoot.com (Export via Ferienhaus-Sigerst-Tooling)" xmlns="http://www.topografix.com/GPX/1/1" xmlns:xsi="http://www.w3.org/2001/XMLSchema-instance" xsi:schemaLocation="http://www.topografix.com/GPX/1/1 http://www.topografix.com/GPX/1/1/gpx.xsd">
  <metadata>
    <name>Gravel-Tour Gamperfin</name>
  </metadata>
  <trk>
    <name>Gravel-Tour Gamperfin</name>
    <trkseg>
      <trkpt lat="47.20099" lon="9.37095"></trkpt>
      <trkpt lat="47.20110" lon="9.37074"></trkpt>
      <trkpt lat="47.20050" lon="9.37002"></trkpt>
      <trkpt lat="47.20015" lon="9.37000"></trkpt>
      <trkpt lat="47.19981" lon="9.37031"></trkpt>
      <trkpt lat="47.19950" lon="9.37090"></trkpt>
      <trkpt lat="47.19932" lon="9.37098"></trkpt>
      <trkpt lat="47.19884" lon="9.37096"></trkpt>
      <trkpt lat="47.19878" lon="9.37217"></trkpt>
      <trkpt lat="47.19851" lon="9.37536"></trkpt>
      <trkpt lat="47.19848" lon="9.37584"></trkpt>
      <trkpt lat="47.19848" lon="9.37684"></trkpt>
      <trkpt lat="47.19818" lon="9.37747"></trkpt>
      <trkpt lat="47.19795" lon="9.37787"></trkpt>
      <trkpt lat="47.19787" lon="9.37835"></trkpt>
      <trkpt lat="47.19834" lon="9.38191"></trkpt>
      <trkpt lat="47.19831" lon="9.38235"></trkpt>
      <trkpt lat="47.19811" lon="9.38345"></trkpt>
      <trkpt lat="47.19812" lon="9.38413"></trkpt>
      <trkpt lat="47.19825" lon="9.38460"></trkpt>
      <trkpt lat="47.19789" lon="9.38499"></trkpt>
      <trkpt lat="47.19785" lon="9.38532"></trkpt>
      <trkpt lat="47.19767" lon="9.38578"></trkpt>
      <trkpt lat="47.19747" lon="9.38593"></trkpt>
      <trkpt lat="47.19740" lon="9.38645"></trkpt>
      <trkpt lat="47.19723" lon="9.38682"></trkpt>
      <trkpt lat="47.19699" lon="9.38699"></trkpt>
      <trkpt lat="47.19688" lon="9.38721"></trkpt>
      <trkpt lat="47.19627" lon="9.38712"></trkpt>
      <trkpt lat="47.19602" lon="9.38728"></trkpt>
      <trkpt lat="47.19603" lon="9.38758"></trkpt>
      <trkpt lat="47.19586" lon="9.38787"></trkpt>
      <trkpt lat="47.19528" lon="9.38804"></trkpt>
      <trkpt lat="47.19510" lon="9.38846"></trkpt>
      <trkpt lat="47.19492" lon="9.38852"></trkpt>
      <trkpt lat="47.19506" lon="9.38783"></trkpt>
      <trkpt lat="47.19528" lon="9.38656"></trkpt>
      <trkpt lat="47.19552" lon="9.38612"></trkpt>
      <trkpt lat="47.19558" lon="9.38564"></trkpt>
      <trkpt lat="47.19573" lon="9.38488"></trkpt>
      <trkpt lat="47.19574" lon="9.38440"></trkpt>
      <trkpt lat="47.19556" lon="9.38438"></trkpt>
      <trkpt lat="47.19485" lon="9.38505"></trkpt>
      <trkpt lat="47.19396" lon="9.38633"></trkpt>
      <trkpt lat="47.19363" lon="9.38661"></trkpt>
      <trkpt lat="47.19374" lon="9.38591"></trkpt>
      <trkpt lat="47.19370" lon="9.38419"></trkpt>
      <trkpt lat="47.19367" lon="9.38343"></trkpt>
      <trkpt lat="47.19382" lon="9.38247"></trkpt>
      <trkpt lat="47.19390" lon="9.38144"></trkpt>
      <trkpt lat="47.19378" lon="9.38102"></trkpt>
      <trkpt lat="47.19335" lon="9.38167"></trkpt>
      <trkpt lat="47.19288" lon="9.38275"></trkpt>
      <trkpt lat="47.19273" lon="9.38397"></trkpt>
      <trkpt lat="47.19236" lon="9.38537"></trkpt>
      <trkpt lat="47.19194" lon="9.38634"></trkpt>
      <trkpt lat="47.19143" lon="9.38817"></trkpt>
      <trkpt lat="47.19119" lon="9.38845"></trkpt>
      <trkpt lat="47.19114" lon="9.38782"></trkpt>
      <trkpt lat="47.19120" lon="9.38653"></trkpt>
      <trkpt lat="47.19120" lon="9.38472"></trkpt>
      <trkpt lat="47.19094" lon="9.38373"></trkpt>
      <trkpt lat="47.19112" lon="9.38188"></trkpt>
      <trkpt lat="47.19118" lon="9.38133"></trkpt>
      <trkpt lat="47.19098" lon="9.38134"></trkpt>
      <trkpt lat="47.18971" lon="9.38434"></trkpt>
      <trkpt lat="47.18917" lon="9.38569"></trkpt>
      <trkpt lat="47.18861" lon="9.38689"></trkpt>
      <trkpt lat="47.18768" lon="9.38823"></trkpt>
      <trkpt lat="47.18765" lon="9.38854"></trkpt>
      <trkpt lat="47.18705" lon="9.38967"></trkpt>
      <trkpt lat="47.18623" lon="9.39046"></trkpt>
      <trkpt lat="47.18572" lon="9.39146"></trkpt>
      <trkpt lat="47.18447" lon="9.39349"></trkpt>
      <trkpt lat="47.18406" lon="9.39385"></trkpt>
      <trkpt lat="47.18386" lon="9.39414"></trkpt>
      <trkpt lat="47.18345" lon="9.39428"></trkpt>
      <trkpt lat="47.18330" lon="9.39434"></trkpt>
      <trkpt lat="47.18296" lon="9.39406"></trkpt>
      <trkpt lat="47.18229" lon="9.39351"></trkpt>
      <trkpt lat="47.18149" lon="9.39342"></trkpt>
      <trkpt lat="47.18105" lon="9.39325"></trkpt>
      <trkpt lat="47.18036" lon="9.39281"></trkpt>
      <trkpt lat="47.17945" lon="9.39169"></trkpt>
      <trkpt lat="47.17934" lon="9.39148"></trkpt>
      <trkpt lat="47.17928" lon="9.39141"></trkpt>
      <trkpt lat="47.17818" lon="9.39077"></trkpt>
      <trkpt lat="47.17788" lon="9.39021"></trkpt>
      <trkpt lat="47.17732" lon="9.38933"></trkpt>
      <trkpt lat="47.17648" lon="9.38819"></trkpt>
      <trkpt lat="47.17568" lon="9.38875"></trkpt>
      <trkpt lat="47.17509" lon="9.38965"></trkpt>
      <trkpt lat="47.17478" lon="9.38990"></trkpt>
      <trkpt lat="47.17421" lon="9.38967"></trkpt>
      <trkpt lat="47.17344" lon="9.38775"></trkpt>
      <trkpt lat="47.17201" lon="9.38496"></trkpt>
      <trkpt lat="47.17180" lon="9.38450"></trkpt>
      <trkpt lat="47.17137" lon="9.38392"></trkpt>
      <trkpt lat="47.17078" lon="9.38308"></trkpt>
      <trkpt lat="47.17043" lon="9.38232"></trkpt>
      <trkpt lat="47.17039" lon="9.38074"></trkpt>
      <trkpt lat="47.17044" lon="9.37989"></trkpt>
      <trkpt lat="47.17045" lon="9.37955"></trkpt>
      <trkpt lat="47.17035" lon="9.37948"></trkpt>
      <trkpt lat="47.17041" lon="9.37870"></trkpt>
      <trkpt lat="47.17061" lon="9.37824"></trkpt>
      <trkpt lat="47.17088" lon="9.37811"></trkpt>
      <trkpt lat="47.17104" lon="9.37885"></trkpt>
      <trkpt lat="47.17117" lon="9.37910"></trkpt>
      <trkpt lat="47.17139" lon="9.37918"></trkpt>
    </trkseg>
  </trk>
</gpx>
