<?xml version="1.0" encoding="UTF-8"?>
<gpx version="1.1" creator="komoot.com (Export via Ferienhaus-Sigerst-Tooling)" xmlns="http://www.topografix.com/GPX/1/1" xmlns:xsi="http://www.w3.org/2001/XMLSchema-instance" xsi:schemaLocation="http://www.topografix.com/GPX/1/1 http://www.topografix.com/GPX/1/1/gpx.xsd">
  <metadata>
    <name>Gulmen (Komoot: From Wildhaus to Gulme)</name>
  </metadata>
  <trk>
    <name>Gulmen (Komoot: From Wildhaus to Gulme)</name>
    <trkseg>
      <trkpt lat="47.20187" lon="9.37244"></trkpt>
      <trkpt lat="47.20224" lon="9.37188"></trkpt>
      <trkpt lat="47.20298" lon="9.37189"></trkpt>
      <trkpt lat="47.20316" lon="9.37134"></trkpt>
      <trkpt lat="47.20334" lon="9.37108"></trkpt>
      <trkpt lat="47.20335" lon="9.37200"></trkpt>
      <trkpt lat="47.20353" lon="9.37343"></trkpt>
      <trkpt lat="47.20391" lon="9.37436"></trkpt>
      <trkpt lat="47.20401" lon="9.37655"></trkpt>
      <trkpt lat="47.20440" lon="9.37662"></trkpt>
      <trkpt lat="47.20485" lon="9.37564"></trkpt>
      <trkpt lat="47.20533" lon="9.37408"></trkpt>
      <trkpt lat="47.20551" lon="9.37339"></trkpt>
      <trkpt lat="47.20541" lon="9.37156"></trkpt>
      <trkpt lat="47.20530" lon="9.37093"></trkpt>
      <trkpt lat="47.20534" lon="9.36981"></trkpt>
      <trkpt lat="47.20540" lon="9.36811"></trkpt>
      <trkpt lat="47.20582" lon="9.36655"></trkpt>
      <trkpt lat="47.20661" lon="9.36583"></trkpt>
      <trkpt lat="47.20695" lon="9.36530"></trkpt>
      <trkpt lat="47.20671" lon="9.36228"></trkpt>
      <trkpt lat="47.20680" lon="9.36048"></trkpt>
      <trkpt lat="47.20765" lon="9.35900"></trkpt>
      <trkpt lat="47.20814" lon="9.35897"></trkpt>
      <trkpt lat="47.20788" lon="9.36000"></trkpt>
      <trkpt lat="47.20784" lon="9.36120"></trkpt>
      <trkpt lat="47.20819" lon="9.36040"></trkpt>
      <trkpt lat="47.20866" lon="9.36030"></trkpt>
      <trkpt lat="47.20874" lon="9.36088"></trkpt>
      <trkpt lat="47.21019" lon="9.35976"></trkpt>
      <trkpt lat="47.21189" lon="9.35845"></trkpt>
      <trkpt lat="47.21238" lon="9.35851"></trkpt>
      <trkpt lat="47.21340" lon="9.35851"></trkpt>
      <trkpt lat="47.21446" lon="9.35862"></trkpt>
      <trkpt lat="47.21467" lon="9.35874"></trkpt>
      <trkpt lat="47.21418" lon="9.35908"></trkpt>
      <trkpt lat="47.21379" lon="9.35947"></trkpt>
      <trkpt lat="47.21330" lon="9.36004"></trkpt>
      <trkpt lat="47.21474" lon="9.36011"></trkpt>
      <trkpt lat="47.21537" lon="9.35977"></trkpt>
      <trkpt lat="47.21576" lon="9.35949"></trkpt>
      <trkpt lat="47.21586" lon="9.35974"></trkpt>
      <trkpt lat="47.21614" lon="9.35942"></trkpt>
      <trkpt lat="47.21621" lon="9.35985"></trkpt>
      <trkpt lat="47.21677" lon="9.35969"></trkpt>
      <trkpt lat="47.21652" lon="9.36066"></trkpt>
      <trkpt lat="47.21650" lon="9.36118"></trkpt>
      <trkpt lat="47.21645" lon="9.36174"></trkpt>
      <trkpt lat="47.21637" lon="9.36225"></trkpt>
      <trkpt lat="47.21656" lon="9.36255"></trkpt>
      <trkpt lat="47.21674" lon="9.36304"></trkpt>
      <trkpt lat="47.21665" lon="9.36352"></trkpt>
      <trkpt lat="47.21661" lon="9.36381"></trkpt>
      <trkpt lat="47.21659" lon="9.36434"></trkpt>
      <trkpt lat="47.21634" lon="9.36449"></trkpt>
      <trkpt lat="47.21594" lon="9.36452"></trkpt>
      <trkpt lat="47.21510" lon="9.36481"></trkpt>
      <trkpt lat="47.21444" lon="9.36517"></trkpt>
      <trkpt lat="47.21421" lon="9.36581"></trkpt>
      <trkpt lat="47.21449" lon="9.36594"></trkpt>
      <trkpt lat="47.21414" lon="9.36720"></trkpt>
      <trkpt lat="47.21475" lon="9.36747"></trkpt>
      <trkpt lat="47.21500" lon="9.36752"></trkpt>
      <trkpt lat="47.21529" lon="9.36815"></trkpt>
      <trkpt lat="47.21562" lon="9.36835"></trkpt>
      <trkpt lat="47.21536" lon="9.36885"></trkpt>
      <trkpt lat="47.21494" lon="9.36948"></trkpt>
      <trkpt lat="47.21547" lon="9.37011"></trkpt>
      <trkpt lat="47.21561" lon="9.37056"></trkpt>
      <trkpt lat="47.21543" lon="9.37135"></trkpt>
      <trkpt lat="47.21550" lon="9.37209"></trkpt>
      <trkpt lat="47.21572" lon="9.37231"></trkpt>
      <trkpt lat="47.21634" lon="9.37216"></trkpt>
      <trkpt lat="47.21667" lon="9.37215"></trkpt>
      <trkpt lat="47.21706" lon="9.37271"></trkpt>
      <trkpt lat="47.21752" lon="9.37372"></trkpt>
      <trkpt lat="47.21785" lon="9.37407"></trkpt>
      <trkpt lat="47.21800" lon="9.37491"></trkpt>
      <trkpt lat="47.21866" lon="9.37563"></trkpt>
      <trkpt lat="47.21872" lon="9.37596"></trkpt>
      <trkpt lat="47.21885" lon="9.37693"></trkpt>
      <trkpt lat="47.21919" lon="9.37727"></trkpt>
      <trkpt lat="47.21949" lon="9.37763"></trkpt>
      <trkpt lat="47.21990" lon="9.37873"></trkpt>
      <trkpt lat="47.22015" lon="9.37944"></trkpt>
      <trkpt lat="47.22044" lon="9.37969"></trkpt>
      <trkpt lat="47.22049" lon="9.38026"></trkpt>
      <trkpt lat="47.22036" lon="9.38087"></trkpt>
      <trkpt lat="47.22061" lon="9.38152"></trkpt>
      <trkpt lat="47.22104" lon="9.38144"></trkpt>
      <trkpt lat="47.22125" lon="9.38185"></trkpt>
      <trkpt lat="47.22156" lon="9.38219"></trkpt>
      <trkpt lat="47.22169" lon="9.38246"></trkpt>
      <trkpt lat="47.22215" lon="9.38294"></trkpt>
      <trkpt lat="47.22258" lon="9.38389"></trkpt>
      <trkpt lat="47.22279" lon="9.38432"></trkpt>
    </trkseg>
  </trk>
</gpx>
