<?xml version="1.0" encoding="UTF-8"?>
<gpx version="1.1" creator="Ferienhaus Sigerst (BRouter/OSM)" xmlns="http://www.topografix.com/GPX/1/1">
  <metadata><name>Klettergarten Stoss (nur Wegpunkt – Zustieg ca. 1.5 h ab Parkplatz Laui)</name>
    <desc>Automatisch generierter Verlauf entlang des OSM-Wanderwegnetzes (BRouter, Profil hiking-mountain). Grobe Auflösung – vor Nutzung im Gelände prüfen.</desc>
  </metadata>
  <wpt lat="47.21727" lon="9.31733"><name>Parkplatz Laui (Start Zustieg Klettergarten Stoss)</name></wpt>
</gpx>
