<?xml version="1.0" encoding="UTF-8"?>
<gpx version="1.1" creator="sigerst-import" xmlns="http://www.topografix.com/GPX/1/1">
  <trk>
    <name>mtb-rundtour-gampluet-thurfaelle</name>
    <trkseg>
      <trkpt lat="47.20722" lon="9.36564"></trkpt>
      <trkpt lat="47.20680" lon="9.36286"></trkpt>
      <trkpt lat="47.20695" lon="9.35883"></trkpt>
      <trkpt lat="47.20724" lon="9.35709"></trkpt>
      <trkpt lat="47.20655" lon="9.35502"></trkpt>
      <trkpt lat="47.20537" lon="9.35225"></trkpt>
      <trkpt lat="47.20454" lon="9.35156"></trkpt>
      <trkpt lat="47.20499" lon="9.34812"></trkpt>
      <trkpt lat="47.20501" lon="9.34448"></trkpt>
      <trkpt lat="47.20509" lon="9.33972"></trkpt>
      <trkpt lat="47.20587" lon="9.33689"></trkpt>
      <trkpt lat="47.20735" lon="9.33341"></trkpt>
      <trkpt lat="47.20876" lon="9.33243"></trkpt>
      <trkpt lat="47.20985" lon="9.32956"></trkpt>
      <trkpt lat="47.21061" lon="9.33062"></trkpt>
      <trkpt lat="47.21095" lon="9.33358"></trkpt>
      <trkpt lat="47.21126" lon="9.33557"></trkpt>
      <trkpt lat="47.21223" lon="9.33485"></trkpt>
      <trkpt lat="47.21215" lon="9.33763"></trkpt>
      <trkpt lat="47.21315" lon="9.33898"></trkpt>
      <trkpt lat="47.21299" lon="9.34001"></trkpt>
      <trkpt lat="47.21218" lon="9.34151"></trkpt>
      <trkpt lat="47.21332" lon="9.34335"></trkpt>
      <trkpt lat="47.21361" lon="9.34483"></trkpt>
      <trkpt lat="47.21507" lon="9.34418"></trkpt>
      <trkpt lat="47.21655" lon="9.34255"></trkpt>
      <trkpt lat="47.21660" lon="9.33977"></trkpt>
      <trkpt lat="47.21784" lon="9.33662"></trkpt>
      <trkpt lat="47.21784" lon="9.33289"></trkpt>
      <trkpt lat="47.21679" lon="9.32890"></trkpt>
      <trkpt lat="47.21813" lon="9.33121"></trkpt>
      <trkpt lat="47.21851" lon="9.33066"></trkpt>
      <trkpt lat="47.21875" lon="9.32840"></trkpt>
      <trkpt lat="47.21809" lon="9.32480"></trkpt>
      <trkpt lat="47.21930" lon="9.32651"></trkpt>
      <trkpt lat="47.22010" lon="9.32715"></trkpt>
      <trkpt lat="47.21965" lon="9.32244"></trkpt>
      <trkpt lat="47.21838" lon="9.31917"></trkpt>
      <trkpt lat="47.21710" lon="9.31652"></trkpt>
      <trkpt lat="47.21630" lon="9.31518"></trkpt>
      <trkpt lat="47.21357" lon="9.31361"></trkpt>
      <trkpt lat="47.21092" lon="9.31207"></trkpt>
      <trkpt lat="47.20841" lon="9.31075"></trkpt>
      <trkpt lat="47.20661" lon="9.31192"></trkpt>
      <trkpt lat="47.20580" lon="9.31290"></trkpt>
      <trkpt lat="47.20433" lon="9.31442"></trkpt>
      <trkpt lat="47.20313" lon="9.31349"></trkpt>
      <trkpt lat="47.20249" lon="9.31347"></trkpt>
      <trkpt lat="47.20180" lon="9.31256"></trkpt>
      <trkpt lat="47.20118" lon="9.31199"></trkpt>
      <trkpt lat="47.20161" lon="9.31177"></trkpt>
      <trkpt lat="47.20112" lon="9.31189"></trkpt>
      <trkpt lat="47.20064" lon="9.31191"></trkpt>
      <trkpt lat="47.19963" lon="9.31118"></trkpt>
      <trkpt lat="47.19852" lon="9.31024"></trkpt>
      <trkpt lat="47.19724" lon="9.31062"></trkpt>
      <trkpt lat="47.19630" lon="9.31253"></trkpt>
      <trkpt lat="47.19543" lon="9.31397"></trkpt>
      <trkpt lat="47.19551" lon="9.31679"></trkpt>
      <trkpt lat="47.19615" lon="9.31908"></trkpt>
      <trkpt lat="47.19506" lon="9.31845"></trkpt>
      <trkpt lat="47.19514" lon="9.31999"></trkpt>
      <trkpt lat="47.19577" lon="9.32113"></trkpt>
      <trkpt lat="47.19449" lon="9.32024"></trkpt>
      <trkpt lat="47.19438" lon="9.32155"></trkpt>
      <trkpt lat="47.19464" lon="9.32408"></trkpt>
      <trkpt lat="47.19403" lon="9.32489"></trkpt>
      <trkpt lat="47.19289" lon="9.32299"></trkpt>
      <trkpt lat="47.19276" lon="9.32337"></trkpt>
      <trkpt lat="47.19221" lon="9.32592"></trkpt>
      <trkpt lat="47.19076" lon="9.32690"></trkpt>
      <trkpt lat="47.18984" lon="9.32734"></trkpt>
      <trkpt lat="47.18858" lon="9.32791"></trkpt>
      <trkpt lat="47.18895" lon="9.32990"></trkpt>
      <trkpt lat="47.19031" lon="9.32997"></trkpt>
      <trkpt lat="47.19254" lon="9.33004"></trkpt>
      <trkpt lat="47.19320" lon="9.33227"></trkpt>
      <trkpt lat="47.19346" lon="9.33605"></trkpt>
      <trkpt lat="47.19452" lon="9.33503"></trkpt>
      <trkpt lat="47.19476" lon="9.33283"></trkpt>
      <trkpt lat="47.19619" lon="9.33618"></trkpt>
      <trkpt lat="47.19716" lon="9.33844"></trkpt>
      <trkpt lat="47.19723" lon="9.34022"></trkpt>
      <trkpt lat="47.19855" lon="9.34129"></trkpt>
      <trkpt lat="47.19872" lon="9.34271"></trkpt>
      <trkpt lat="47.19884" lon="9.34557"></trkpt>
      <trkpt lat="47.20006" lon="9.34738"></trkpt>
      <trkpt lat="47.19954" lon="9.35177"></trkpt>
      <trkpt lat="47.19864" lon="9.35627"></trkpt>
      <trkpt lat="47.20108" lon="9.35864"></trkpt>
      <trkpt lat="47.20238" lon="9.35892"></trkpt>
      <trkpt lat="47.20442" lon="9.35885"></trkpt>
      <trkpt lat="47.20437" lon="9.35970"></trkpt>
      <trkpt lat="47.20385" lon="9.36166"></trkpt>
      <trkpt lat="47.20433" lon="9.36398"></trkpt>
      <trkpt lat="47.20512" lon="9.36591"></trkpt>
      <trkpt lat="47.20665" lon="9.36580"></trkpt>
      <trkpt lat="47.20722" lon="9.36564"></trkpt>
    </trkseg>
  </trk>
</gpx>
