<?xml version="1.0" encoding="UTF-8"?>
<gpx version="1.1" creator="komoot.com (Export via Ferienhaus-Sigerst-Tooling)" xmlns="http://www.topografix.com/GPX/1/1" xmlns:xsi="http://www.w3.org/2001/XMLSchema-instance" xsi:schemaLocation="http://www.topografix.com/GPX/1/1 http://www.topografix.com/GPX/1/1/gpx.xsd">
  <metadata>
    <name>Mutschen</name>
  </metadata>
  <trk>
    <name>Mutschen</name>
    <trkseg>
      <trkpt lat="47.20173" lon="9.37269"></trkpt>
      <trkpt lat="47.20134" lon="9.37580"></trkpt>
      <trkpt lat="47.20131" lon="9.37843"></trkpt>
      <trkpt lat="47.20164" lon="9.37909"></trkpt>
      <trkpt lat="47.20132" lon="9.38169"></trkpt>
      <trkpt lat="47.20219" lon="9.38191"></trkpt>
      <trkpt lat="47.20263" lon="9.38247"></trkpt>
      <trkpt lat="47.20345" lon="9.38253"></trkpt>
      <trkpt lat="47.20378" lon="9.38344"></trkpt>
      <trkpt lat="47.20550" lon="9.38333"></trkpt>
      <trkpt lat="47.20664" lon="9.38552"></trkpt>
      <trkpt lat="47.20676" lon="9.38701"></trkpt>
      <trkpt lat="47.20732" lon="9.38795"></trkpt>
      <trkpt lat="47.20769" lon="9.39004"></trkpt>
      <trkpt lat="47.20723" lon="9.39047"></trkpt>
      <trkpt lat="47.20826" lon="9.39295"></trkpt>
      <trkpt lat="47.20901" lon="9.39517"></trkpt>
      <trkpt lat="47.20910" lon="9.39700"></trkpt>
      <trkpt lat="47.20892" lon="9.39836"></trkpt>
      <trkpt lat="47.20896" lon="9.39994"></trkpt>
      <trkpt lat="47.20882" lon="9.40064"></trkpt>
      <trkpt lat="47.20960" lon="9.40175"></trkpt>
      <trkpt lat="47.20921" lon="9.40244"></trkpt>
      <trkpt lat="47.20946" lon="9.40310"></trkpt>
      <trkpt lat="47.21081" lon="9.40421"></trkpt>
      <trkpt lat="47.21148" lon="9.40542"></trkpt>
      <trkpt lat="47.21209" lon="9.40613"></trkpt>
      <trkpt lat="47.21315" lon="9.40761"></trkpt>
      <trkpt lat="47.21411" lon="9.40882"></trkpt>
      <trkpt lat="47.21442" lon="9.41015"></trkpt>
      <trkpt lat="47.21475" lon="9.41125"></trkpt>
      <trkpt lat="47.21531" lon="9.41051"></trkpt>
      <trkpt lat="47.21652" lon="9.40933"></trkpt>
      <trkpt lat="47.21686" lon="9.40817"></trkpt>
      <trkpt lat="47.21851" lon="9.40729"></trkpt>
      <trkpt lat="47.21932" lon="9.40822"></trkpt>
      <trkpt lat="47.21930" lon="9.40767"></trkpt>
      <trkpt lat="47.21959" lon="9.40662"></trkpt>
      <trkpt lat="47.22011" lon="9.40684"></trkpt>
      <trkpt lat="47.22043" lon="9.40685"></trkpt>
      <trkpt lat="47.22058" lon="9.40727"></trkpt>
      <trkpt lat="47.22092" lon="9.40709"></trkpt>
      <trkpt lat="47.22164" lon="9.40728"></trkpt>
      <trkpt lat="47.22238" lon="9.40849"></trkpt>
      <trkpt lat="47.22316" lon="9.40813"></trkpt>
      <trkpt lat="47.22395" lon="9.40847"></trkpt>
      <trkpt lat="47.22487" lon="9.40878"></trkpt>
      <trkpt lat="47.22425" lon="9.40733"></trkpt>
      <trkpt lat="47.22460" lon="9.40705"></trkpt>
      <trkpt lat="47.22471" lon="9.40646"></trkpt>
      <trkpt lat="47.22516" lon="9.40654"></trkpt>
      <trkpt lat="47.22544" lon="9.40650"></trkpt>
      <trkpt lat="47.22542" lon="9.40618"></trkpt>
      <trkpt lat="47.22530" lon="9.40599"></trkpt>
      <trkpt lat="47.22530" lon="9.40571"></trkpt>
      <trkpt lat="47.22532" lon="9.40530"></trkpt>
      <trkpt lat="47.22546" lon="9.40519"></trkpt>
      <trkpt lat="47.22604" lon="9.40541"></trkpt>
      <trkpt lat="47.22632" lon="9.40541"></trkpt>
      <trkpt lat="47.22671" lon="9.40531"></trkpt>
      <trkpt lat="47.22716" lon="9.40548"></trkpt>
      <trkpt lat="47.22818" lon="9.40630"></trkpt>
      <trkpt lat="47.22895" lon="9.40614"></trkpt>
      <trkpt lat="47.22931" lon="9.40655"></trkpt>
      <trkpt lat="47.22975" lon="9.40663"></trkpt>
      <trkpt lat="47.23067" lon="9.40587"></trkpt>
      <trkpt lat="47.23099" lon="9.40560"></trkpt>
      <trkpt lat="47.23164" lon="9.40551"></trkpt>
      <trkpt lat="47.23180" lon="9.40491"></trkpt>
      <trkpt lat="47.23258" lon="9.40522"></trkpt>
      <trkpt lat="47.23300" lon="9.40525"></trkpt>
      <trkpt lat="47.23335" lon="9.40541"></trkpt>
      <trkpt lat="47.23354" lon="9.40529"></trkpt>
      <trkpt lat="47.23370" lon="9.40507"></trkpt>
      <trkpt lat="47.23373" lon="9.40479"></trkpt>
      <trkpt lat="47.23375" lon="9.40447"></trkpt>
      <trkpt lat="47.23381" lon="9.40423"></trkpt>
      <trkpt lat="47.23397" lon="9.40402"></trkpt>
      <trkpt lat="47.23501" lon="9.40506"></trkpt>
      <trkpt lat="47.23590" lon="9.40594"></trkpt>
      <trkpt lat="47.23607" lon="9.40629"></trkpt>
      <trkpt lat="47.23632" lon="9.40570"></trkpt>
      <trkpt lat="47.23655" lon="9.40536"></trkpt>
      <trkpt lat="47.23638" lon="9.40431"></trkpt>
      <trkpt lat="47.23563" lon="9.40390"></trkpt>
      <trkpt lat="47.23594" lon="9.40288"></trkpt>
      <trkpt lat="47.23545" lon="9.40179"></trkpt>
      <trkpt lat="47.23512" lon="9.40110"></trkpt>
      <trkpt lat="47.23428" lon="9.40066"></trkpt>
      <trkpt lat="47.23402" lon="9.40017"></trkpt>
      <trkpt lat="47.23365" lon="9.39945"></trkpt>
      <trkpt lat="47.23323" lon="9.39886"></trkpt>
      <trkpt lat="47.23300" lon="9.39822"></trkpt>
      <trkpt lat="47.23219" lon="9.39766"></trkpt>
      <trkpt lat="47.23162" lon="9.39585"></trkpt>
      <trkpt lat="47.23087" lon="9.39377"></trkpt>
      <trkpt lat="47.22972" lon="9.39088"></trkpt>
      <trkpt lat="47.22927" lon="9.38956"></trkpt>
      <trkpt lat="47.22873" lon="9.38741"></trkpt>
      <trkpt lat="47.22774" lon="9.38589"></trkpt>
      <trkpt lat="47.22716" lon="9.38450"></trkpt>
      <trkpt lat="47.22629" lon="9.38184"></trkpt>
      <trkpt lat="47.22533" lon="9.38027"></trkpt>
      <trkpt lat="47.22486" lon="9.37945"></trkpt>
      <trkpt lat="47.22411" lon="9.37819"></trkpt>
      <trkpt lat="47.22337" lon="9.37594"></trkpt>
      <trkpt lat="47.22206" lon="9.37185"></trkpt>
      <trkpt lat="47.22127" lon="9.36998"></trkpt>
      <trkpt lat="47.22027" lon="9.36521"></trkpt>
      <trkpt lat="47.21860" lon="9.35993"></trkpt>
      <trkpt lat="47.21786" lon="9.35658"></trkpt>
      <trkpt lat="47.21755" lon="9.35618"></trkpt>
      <trkpt lat="47.21709" lon="9.35584"></trkpt>
      <trkpt lat="47.21662" lon="9.35591"></trkpt>
      <trkpt lat="47.21647" lon="9.35605"></trkpt>
      <trkpt lat="47.21614" lon="9.35614"></trkpt>
      <trkpt lat="47.21594" lon="9.35634"></trkpt>
      <trkpt lat="47.21545" lon="9.35646"></trkpt>
      <trkpt lat="47.21475" lon="9.35639"></trkpt>
      <trkpt lat="47.21343" lon="9.35652"></trkpt>
      <trkpt lat="47.21197" lon="9.35662"></trkpt>
      <trkpt lat="47.21050" lon="9.35636"></trkpt>
      <trkpt lat="47.20977" lon="9.35602"></trkpt>
      <trkpt lat="47.20898" lon="9.35677"></trkpt>
      <trkpt lat="47.20755" lon="9.35711"></trkpt>
      <trkpt lat="47.20725" lon="9.35722"></trkpt>
      <trkpt lat="47.20700" lon="9.35849"></trkpt>
      <trkpt lat="47.20671" lon="9.36228"></trkpt>
      <trkpt lat="47.20682" lon="9.36563"></trkpt>
      <trkpt lat="47.20569" lon="9.36921"></trkpt>
      <trkpt lat="47.20541" lon="9.37153"></trkpt>
      <trkpt lat="47.20544" lon="9.37395"></trkpt>
      <trkpt lat="47.20484" lon="9.37566"></trkpt>
      <trkpt lat="47.20401" lon="9.37655"></trkpt>
      <trkpt lat="47.20360" lon="9.37367"></trkpt>
      <trkpt lat="47.20334" lon="9.37178"></trkpt>
      <trkpt lat="47.20316" lon="9.37134"></trkpt>
      <trkpt lat="47.20256" lon="9.37189"></trkpt>
      <trkpt lat="47.20173" lon="9.37269"></trkpt>
    </trkseg>
  </trk>
</gpx>
