<?xml version="1.0" encoding="UTF-8"?>
<gpx version="1.1" creator="sigerst-import" xmlns="http://www.topografix.com/GPX/1/1">
  <trk>
    <name>neuenalp-oberstofel</name>
    <trkseg>
      <trkpt lat="47.19726" lon="9.30830"></trkpt>
      <trkpt lat="47.19771" lon="9.30809"></trkpt>
      <trkpt lat="47.19839" lon="9.30843"></trkpt>
      <trkpt lat="47.19880" lon="9.30911"></trkpt>
      <trkpt lat="47.19896" lon="9.30907"></trkpt>
      <trkpt lat="47.19951" lon="9.30833"></trkpt>
      <trkpt lat="47.19917" lon="9.30713"></trkpt>
      <trkpt lat="47.19917" lon="9.30562"></trkpt>
      <trkpt lat="47.19912" lon="9.30475"></trkpt>
      <trkpt lat="47.19924" lon="9.30467"></trkpt>
      <trkpt lat="47.19963" lon="9.30529"></trkpt>
      <trkpt lat="47.20081" lon="9.30665"></trkpt>
      <trkpt lat="47.20096" lon="9.30671"></trkpt>
      <trkpt lat="47.20175" lon="9.30683"></trkpt>
      <trkpt lat="47.20264" lon="9.30809"></trkpt>
      <trkpt lat="47.20292" lon="9.30839"></trkpt>
      <trkpt lat="47.20321" lon="9.30908"></trkpt>
      <trkpt lat="47.20379" lon="9.30991"></trkpt>
      <trkpt lat="47.20457" lon="9.31101"></trkpt>
      <trkpt lat="47.20539" lon="9.31149"></trkpt>
      <trkpt lat="47.20636" lon="9.31183"></trkpt>
      <trkpt lat="47.20739" lon="9.31150"></trkpt>
      <trkpt lat="47.20800" lon="9.31087"></trkpt>
      <trkpt lat="47.20836" lon="9.31075"></trkpt>
      <trkpt lat="47.20938" lon="9.31090"></trkpt>
      <trkpt lat="47.21021" lon="9.31144"></trkpt>
      <trkpt lat="47.21109" lon="9.31223"></trkpt>
      <trkpt lat="47.21168" lon="9.31250"></trkpt>
      <trkpt lat="47.21223" lon="9.31276"></trkpt>
      <trkpt lat="47.21281" lon="9.31319"></trkpt>
      <trkpt lat="47.21394" lon="9.31392"></trkpt>
      <trkpt lat="47.21427" lon="9.31415"></trkpt>
      <trkpt lat="47.21467" lon="9.31436"></trkpt>
      <trkpt lat="47.21522" lon="9.31468"></trkpt>
      <trkpt lat="47.21610" lon="9.31504"></trkpt>
      <trkpt lat="47.21663" lon="9.31500"></trkpt>
      <trkpt lat="47.21715" lon="9.31496"></trkpt>
      <trkpt lat="47.21749" lon="9.31496"></trkpt>
      <trkpt lat="47.21841" lon="9.31430"></trkpt>
      <trkpt lat="47.21922" lon="9.31442"></trkpt>
      <trkpt lat="47.21921" lon="9.31418"></trkpt>
      <trkpt lat="47.21908" lon="9.31409"></trkpt>
      <trkpt lat="47.21806" lon="9.31266"></trkpt>
      <trkpt lat="47.21731" lon="9.31147"></trkpt>
      <trkpt lat="47.21672" lon="9.31106"></trkpt>
      <trkpt lat="47.21599" lon="9.30999"></trkpt>
      <trkpt lat="47.21540" lon="9.30812"></trkpt>
      <trkpt lat="47.21525" lon="9.30662"></trkpt>
      <trkpt lat="47.21507" lon="9.30434"></trkpt>
      <trkpt lat="47.21423" lon="9.30258"></trkpt>
      <trkpt lat="47.21406" lon="9.30154"></trkpt>
      <trkpt lat="47.21382" lon="9.30035"></trkpt>
      <trkpt lat="47.21353" lon="9.29844"></trkpt>
      <trkpt lat="47.21341" lon="9.29716"></trkpt>
      <trkpt lat="47.21312" lon="9.29580"></trkpt>
      <trkpt lat="47.21288" lon="9.29491"></trkpt>
      <trkpt lat="47.21256" lon="9.29388"></trkpt>
      <trkpt lat="47.21240" lon="9.29301"></trkpt>
      <trkpt lat="47.21207" lon="9.29242"></trkpt>
      <trkpt lat="47.21191" lon="9.29166"></trkpt>
      <trkpt lat="47.21179" lon="9.29096"></trkpt>
      <trkpt lat="47.21149" lon="9.28977"></trkpt>
      <trkpt lat="47.21123" lon="9.28916"></trkpt>
      <trkpt lat="47.21063" lon="9.28826"></trkpt>
      <trkpt lat="47.21035" lon="9.28736"></trkpt>
      <trkpt lat="47.21020" lon="9.28610"></trkpt>
      <trkpt lat="47.20995" lon="9.28509"></trkpt>
      <trkpt lat="47.20943" lon="9.28240"></trkpt>
      <trkpt lat="47.20889" lon="9.28137"></trkpt>
      <trkpt lat="47.20769" lon="9.28016"></trkpt>
      <trkpt lat="47.20742" lon="9.27982"></trkpt>
      <trkpt lat="47.20709" lon="9.27984"></trkpt>
      <trkpt lat="47.20686" lon="9.27970"></trkpt>
      <trkpt lat="47.20658" lon="9.27905"></trkpt>
      <trkpt lat="47.20642" lon="9.27813"></trkpt>
      <trkpt lat="47.20670" lon="9.27674"></trkpt>
      <trkpt lat="47.20631" lon="9.27572"></trkpt>
      <trkpt lat="47.20614" lon="9.27497"></trkpt>
      <trkpt lat="47.20607" lon="9.27432"></trkpt>
      <trkpt lat="47.20609" lon="9.27382"></trkpt>
      <trkpt lat="47.20594" lon="9.27307"></trkpt>
      <trkpt lat="47.20586" lon="9.27261"></trkpt>
      <trkpt lat="47.20577" lon="9.27133"></trkpt>
      <trkpt lat="47.20555" lon="9.26947"></trkpt>
      <trkpt lat="47.20490" lon="9.26731"></trkpt>
    </trkseg>
  </trk>
</gpx>
