<?xml version="1.0" encoding="UTF-8"?>
<gpx version="1.1" creator="sigerst-import" xmlns="http://www.topografix.com/GPX/1/1">
  <trk>
    <name>risipass</name>
    <trkseg>
      <trkpt lat="47.20175" lon="9.22605"></trkpt>
      <trkpt lat="47.20169" lon="9.22677"></trkpt>
      <trkpt lat="47.20082" lon="9.22739"></trkpt>
      <trkpt lat="47.19990" lon="9.22853"></trkpt>
      <trkpt lat="47.20030" lon="9.22900"></trkpt>
      <trkpt lat="47.20139" lon="9.22915"></trkpt>
      <trkpt lat="47.20047" lon="9.23037"></trkpt>
      <trkpt lat="47.20021" lon="9.23104"></trkpt>
      <trkpt lat="47.20060" lon="9.23081"></trkpt>
      <trkpt lat="47.20129" lon="9.23061"></trkpt>
      <trkpt lat="47.20197" lon="9.23060"></trkpt>
      <trkpt lat="47.20276" lon="9.23060"></trkpt>
      <trkpt lat="47.20338" lon="9.23045"></trkpt>
      <trkpt lat="47.20416" lon="9.23082"></trkpt>
      <trkpt lat="47.20524" lon="9.23046"></trkpt>
      <trkpt lat="47.20621" lon="9.22998"></trkpt>
      <trkpt lat="47.20663" lon="9.22951"></trkpt>
      <trkpt lat="47.20738" lon="9.22875"></trkpt>
      <trkpt lat="47.20819" lon="9.22868"></trkpt>
      <trkpt lat="47.20823" lon="9.22866"></trkpt>
      <trkpt lat="47.20824" lon="9.22879"></trkpt>
      <trkpt lat="47.20771" lon="9.22898"></trkpt>
      <trkpt lat="47.20720" lon="9.23030"></trkpt>
      <trkpt lat="47.20686" lon="9.23143"></trkpt>
      <trkpt lat="47.20721" lon="9.23120"></trkpt>
      <trkpt lat="47.20785" lon="9.23106"></trkpt>
      <trkpt lat="47.20900" lon="9.23114"></trkpt>
      <trkpt lat="47.20882" lon="9.23182"></trkpt>
      <trkpt lat="47.20807" lon="9.23281"></trkpt>
      <trkpt lat="47.20715" lon="9.23328"></trkpt>
      <trkpt lat="47.20673" lon="9.23413"></trkpt>
      <trkpt lat="47.20638" lon="9.23501"></trkpt>
      <trkpt lat="47.20644" lon="9.23576"></trkpt>
      <trkpt lat="47.20653" lon="9.23627"></trkpt>
      <trkpt lat="47.20633" lon="9.23664"></trkpt>
      <trkpt lat="47.20638" lon="9.23675"></trkpt>
      <trkpt lat="47.20678" lon="9.23629"></trkpt>
      <trkpt lat="47.20705" lon="9.23527"></trkpt>
      <trkpt lat="47.20797" lon="9.23536"></trkpt>
      <trkpt lat="47.20844" lon="9.23560"></trkpt>
      <trkpt lat="47.20914" lon="9.23628"></trkpt>
      <trkpt lat="47.20998" lon="9.23613"></trkpt>
      <trkpt lat="47.21060" lon="9.23584"></trkpt>
      <trkpt lat="47.21111" lon="9.23717"></trkpt>
      <trkpt lat="47.21151" lon="9.23698"></trkpt>
      <trkpt lat="47.21246" lon="9.23689"></trkpt>
      <trkpt lat="47.21294" lon="9.23686"></trkpt>
      <trkpt lat="47.21309" lon="9.23702"></trkpt>
      <trkpt lat="47.21326" lon="9.23751"></trkpt>
      <trkpt lat="47.21335" lon="9.23752"></trkpt>
      <trkpt lat="47.21398" lon="9.23703"></trkpt>
      <trkpt lat="47.21420" lon="9.23689"></trkpt>
      <trkpt lat="47.21437" lon="9.23741"></trkpt>
      <trkpt lat="47.21436" lon="9.23747"></trkpt>
      <trkpt lat="47.21478" lon="9.23813"></trkpt>
      <trkpt lat="47.21471" lon="9.23827"></trkpt>
      <trkpt lat="47.21403" lon="9.23873"></trkpt>
      <trkpt lat="47.21428" lon="9.23955"></trkpt>
      <trkpt lat="47.21475" lon="9.23969"></trkpt>
      <trkpt lat="47.21524" lon="9.23971"></trkpt>
      <trkpt lat="47.21580" lon="9.23986"></trkpt>
      <trkpt lat="47.21655" lon="9.23945"></trkpt>
      <trkpt lat="47.21726" lon="9.23902"></trkpt>
      <trkpt lat="47.21784" lon="9.23898"></trkpt>
      <trkpt lat="47.21855" lon="9.23924"></trkpt>
      <trkpt lat="47.21912" lon="9.23984"></trkpt>
      <trkpt lat="47.21878" lon="9.24010"></trkpt>
      <trkpt lat="47.21841" lon="9.24071"></trkpt>
      <trkpt lat="47.21882" lon="9.24071"></trkpt>
      <trkpt lat="47.21914" lon="9.24122"></trkpt>
      <trkpt lat="47.21935" lon="9.24227"></trkpt>
      <trkpt lat="47.21984" lon="9.24382"></trkpt>
      <trkpt lat="47.21895" lon="9.24450"></trkpt>
      <trkpt lat="47.21848" lon="9.24537"></trkpt>
      <trkpt lat="47.21876" lon="9.24619"></trkpt>
      <trkpt lat="47.21883" lon="9.24738"></trkpt>
      <trkpt lat="47.21894" lon="9.24783"></trkpt>
      <trkpt lat="47.21931" lon="9.24836"></trkpt>
      <trkpt lat="47.21979" lon="9.24868"></trkpt>
      <trkpt lat="47.22006" lon="9.24879"></trkpt>
      <trkpt lat="47.22034" lon="9.24796"></trkpt>
      <trkpt lat="47.22086" lon="9.24762"></trkpt>
      <trkpt lat="47.22107" lon="9.24724"></trkpt>
      <trkpt lat="47.22113" lon="9.24725"></trkpt>
      <trkpt lat="47.22136" lon="9.24750"></trkpt>
      <trkpt lat="47.22194" lon="9.24786"></trkpt>
      <trkpt lat="47.22292" lon="9.24811"></trkpt>
      <trkpt lat="47.22360" lon="9.24768"></trkpt>
      <trkpt lat="47.22376" lon="9.24652"></trkpt>
      <trkpt lat="47.22399" lon="9.24430"></trkpt>
    </trkseg>
  </trk>
</gpx>
