<?xml version="1.0" encoding="UTF-8"?>
<gpx version="1.1" creator="komoot.com (Export via Ferienhaus-Sigerst-Tooling)" xmlns="http://www.topografix.com/GPX/1/1" xmlns:xsi="http://www.w3.org/2001/XMLSchema-instance" xsi:schemaLocation="http://www.topografix.com/GPX/1/1 http://www.topografix.com/GPX/1/1/gpx.xsd">
  <metadata>
    <name>Rundlauf Wildhaus</name>
  </metadata>
  <trk>
    <name>Rundlauf Wildhaus</name>
    <trkseg>
      <trkpt lat="47.20572" lon="9.37541"></trkpt>
      <trkpt lat="47.20559" lon="9.37523"></trkpt>
      <trkpt lat="47.20505" lon="9.37486"></trkpt>
      <trkpt lat="47.20455" lon="9.37637"></trkpt>
      <trkpt lat="47.20411" lon="9.37666"></trkpt>
      <trkpt lat="47.20392" lon="9.37523"></trkpt>
      <trkpt lat="47.20360" lon="9.37367"></trkpt>
      <trkpt lat="47.20345" lon="9.37236"></trkpt>
      <trkpt lat="47.20338" lon="9.37124"></trkpt>
      <trkpt lat="47.20312" lon="9.37078"></trkpt>
      <trkpt lat="47.20304" lon="9.37179"></trkpt>
      <trkpt lat="47.20256" lon="9.37189"></trkpt>
      <trkpt lat="47.20193" lon="9.37234"></trkpt>
      <trkpt lat="47.20092" lon="9.37188"></trkpt>
      <trkpt lat="47.20099" lon="9.37095"></trkpt>
      <trkpt lat="47.20092" lon="9.37188"></trkpt>
      <trkpt lat="47.20193" lon="9.37234"></trkpt>
      <trkpt lat="47.20256" lon="9.37189"></trkpt>
      <trkpt lat="47.20304" lon="9.37179"></trkpt>
      <trkpt lat="47.20312" lon="9.37078"></trkpt>
      <trkpt lat="47.20338" lon="9.37124"></trkpt>
      <trkpt lat="47.20345" lon="9.37236"></trkpt>
      <trkpt lat="47.20360" lon="9.37367"></trkpt>
      <trkpt lat="47.20392" lon="9.37523"></trkpt>
      <trkpt lat="47.20411" lon="9.37666"></trkpt>
      <trkpt lat="47.20455" lon="9.37637"></trkpt>
      <trkpt lat="47.20505" lon="9.37486"></trkpt>
      <trkpt lat="47.20544" lon="9.37395"></trkpt>
      <trkpt lat="47.20563" lon="9.37457"></trkpt>
      <trkpt lat="47.20570" lon="9.37524"></trkpt>
      <trkpt lat="47.20579" lon="9.37606"></trkpt>
      <trkpt lat="47.20580" lon="9.37737"></trkpt>
      <trkpt lat="47.20532" lon="9.37772"></trkpt>
      <trkpt lat="47.20532" lon="9.37948"></trkpt>
      <trkpt lat="47.20610" lon="9.38122"></trkpt>
      <trkpt lat="47.20623" lon="9.38324"></trkpt>
      <trkpt lat="47.20697" lon="9.38658"></trkpt>
      <trkpt lat="47.20676" lon="9.38701"></trkpt>
      <trkpt lat="47.20685" lon="9.38756"></trkpt>
      <trkpt lat="47.20735" lon="9.38828"></trkpt>
      <trkpt lat="47.20750" lon="9.38963"></trkpt>
      <trkpt lat="47.20763" lon="9.39019"></trkpt>
      <trkpt lat="47.20723" lon="9.39047"></trkpt>
      <trkpt lat="47.20795" lon="9.39175"></trkpt>
      <trkpt lat="47.20829" lon="9.39325"></trkpt>
      <trkpt lat="47.20880" lon="9.39462"></trkpt>
      <trkpt lat="47.20914" lon="9.39609"></trkpt>
      <trkpt lat="47.20910" lon="9.39700"></trkpt>
      <trkpt lat="47.20974" lon="9.39798"></trkpt>
      <trkpt lat="47.20999" lon="9.39840"></trkpt>
      <trkpt lat="47.21021" lon="9.39912"></trkpt>
      <trkpt lat="47.21067" lon="9.40028"></trkpt>
      <trkpt lat="47.21089" lon="9.40096"></trkpt>
      <trkpt lat="47.21105" lon="9.40132"></trkpt>
      <trkpt lat="47.21124" lon="9.40149"></trkpt>
      <trkpt lat="47.21158" lon="9.40137"></trkpt>
      <trkpt lat="47.21200" lon="9.40099"></trkpt>
      <trkpt lat="47.21250" lon="9.40089"></trkpt>
      <trkpt lat="47.21295" lon="9.40081"></trkpt>
      <trkpt lat="47.21327" lon="9.40074"></trkpt>
      <trkpt lat="47.21352" lon="9.40062"></trkpt>
      <trkpt lat="47.21419" lon="9.40026"></trkpt>
      <trkpt lat="47.21452" lon="9.39967"></trkpt>
      <trkpt lat="47.21446" lon="9.39878"></trkpt>
      <trkpt lat="47.21442" lon="9.39768"></trkpt>
      <trkpt lat="47.21422" lon="9.39589"></trkpt>
      <trkpt lat="47.21385" lon="9.39548"></trkpt>
      <trkpt lat="47.21335" lon="9.39498"></trkpt>
      <trkpt lat="47.21325" lon="9.39366"></trkpt>
      <trkpt lat="47.21377" lon="9.39288"></trkpt>
      <trkpt lat="47.21371" lon="9.39245"></trkpt>
      <trkpt lat="47.21187" lon="9.39086"></trkpt>
      <trkpt lat="47.21218" lon="9.38991"></trkpt>
      <trkpt lat="47.21248" lon="9.38966"></trkpt>
      <trkpt lat="47.21210" lon="9.38804"></trkpt>
      <trkpt lat="47.21162" lon="9.38847"></trkpt>
      <trkpt lat="47.21117" lon="9.38778"></trkpt>
      <trkpt lat="47.21110" lon="9.38677"></trkpt>
      <trkpt lat="47.21076" lon="9.38495"></trkpt>
      <trkpt lat="47.21043" lon="9.38367"></trkpt>
      <trkpt lat="47.21022" lon="9.38342"></trkpt>
      <trkpt lat="47.20966" lon="9.38469"></trkpt>
      <trkpt lat="47.20857" lon="9.38578"></trkpt>
      <trkpt lat="47.20831" lon="9.38569"></trkpt>
      <trkpt lat="47.20854" lon="9.38400"></trkpt>
      <trkpt lat="47.20868" lon="9.38362"></trkpt>
      <trkpt lat="47.20818" lon="9.38385"></trkpt>
      <trkpt lat="47.20777" lon="9.38347"></trkpt>
      <trkpt lat="47.20623" lon="9.38324"></trkpt>
      <trkpt lat="47.20610" lon="9.38122"></trkpt>
      <trkpt lat="47.20532" lon="9.37948"></trkpt>
      <trkpt lat="47.20532" lon="9.37772"></trkpt>
      <trkpt lat="47.20580" lon="9.37737"></trkpt>
      <trkpt lat="47.20579" lon="9.37606"></trkpt>
      <trkpt lat="47.20572" lon="9.37541"></trkpt>
    </trkseg>
  </trk>
</gpx>
