<?xml version="1.0" encoding="UTF-8"?>
<gpx version="1.1" creator="sigerst-import" xmlns="http://www.topografix.com/GPX/1/1">
  <trk>
    <name>saentis-lisengrat</name>
    <trkseg>
      <trkpt lat="47.20757" lon="9.35719"></trkpt>
      <trkpt lat="47.20989" lon="9.35601"></trkpt>
      <trkpt lat="47.21151" lon="9.35665"></trkpt>
      <trkpt lat="47.21347" lon="9.35649"></trkpt>
      <trkpt lat="47.21507" lon="9.35650"></trkpt>
      <trkpt lat="47.21579" lon="9.35614"></trkpt>
      <trkpt lat="47.21607" lon="9.35614"></trkpt>
      <trkpt lat="47.21638" lon="9.35599"></trkpt>
      <trkpt lat="47.21713" lon="9.35592"></trkpt>
      <trkpt lat="47.21754" lon="9.35618"></trkpt>
      <trkpt lat="47.21784" lon="9.35654"></trkpt>
      <trkpt lat="47.21821" lon="9.35798"></trkpt>
      <trkpt lat="47.21873" lon="9.36029"></trkpt>
      <trkpt lat="47.21973" lon="9.36330"></trkpt>
      <trkpt lat="47.22026" lon="9.36503"></trkpt>
      <trkpt lat="47.22074" lon="9.36793"></trkpt>
      <trkpt lat="47.22176" lon="9.37025"></trkpt>
      <trkpt lat="47.22272" lon="9.37114"></trkpt>
      <trkpt lat="47.22309" lon="9.37197"></trkpt>
      <trkpt lat="47.22337" lon="9.37300"></trkpt>
      <trkpt lat="47.22354" lon="9.37392"></trkpt>
      <trkpt lat="47.22375" lon="9.37449"></trkpt>
      <trkpt lat="47.22381" lon="9.37412"></trkpt>
      <trkpt lat="47.22391" lon="9.37387"></trkpt>
      <trkpt lat="47.22418" lon="9.37427"></trkpt>
      <trkpt lat="47.22441" lon="9.37454"></trkpt>
      <trkpt lat="47.22458" lon="9.37521"></trkpt>
      <trkpt lat="47.22482" lon="9.37514"></trkpt>
      <trkpt lat="47.22504" lon="9.37581"></trkpt>
      <trkpt lat="47.22534" lon="9.37587"></trkpt>
      <trkpt lat="47.22562" lon="9.37669"></trkpt>
      <trkpt lat="47.22584" lon="9.37666"></trkpt>
      <trkpt lat="47.22616" lon="9.37728"></trkpt>
      <trkpt lat="47.22644" lon="9.37622"></trkpt>
      <trkpt lat="47.22660" lon="9.37538"></trkpt>
      <trkpt lat="47.22664" lon="9.37423"></trkpt>
      <trkpt lat="47.22693" lon="9.37368"></trkpt>
      <trkpt lat="47.22726" lon="9.37447"></trkpt>
      <trkpt lat="47.22759" lon="9.37508"></trkpt>
      <trkpt lat="47.22841" lon="9.37583"></trkpt>
      <trkpt lat="47.22903" lon="9.37611"></trkpt>
      <trkpt lat="47.22947" lon="9.37603"></trkpt>
      <trkpt lat="47.23005" lon="9.37581"></trkpt>
      <trkpt lat="47.23052" lon="9.37530"></trkpt>
      <trkpt lat="47.23069" lon="9.37480"></trkpt>
      <trkpt lat="47.23143" lon="9.37423"></trkpt>
      <trkpt lat="47.23195" lon="9.37436"></trkpt>
      <trkpt lat="47.23273" lon="9.37430"></trkpt>
      <trkpt lat="47.23341" lon="9.37476"></trkpt>
      <trkpt lat="47.23393" lon="9.37549"></trkpt>
      <trkpt lat="47.23439" lon="9.37577"></trkpt>
      <trkpt lat="47.23470" lon="9.37498"></trkpt>
      <trkpt lat="47.23508" lon="9.37432"></trkpt>
      <trkpt lat="47.23559" lon="9.37465"></trkpt>
      <trkpt lat="47.23581" lon="9.37480"></trkpt>
      <trkpt lat="47.23618" lon="9.37474"></trkpt>
      <trkpt lat="47.23644" lon="9.37425"></trkpt>
      <trkpt lat="47.23657" lon="9.37320"></trkpt>
      <trkpt lat="47.23665" lon="9.37215"></trkpt>
      <trkpt lat="47.23680" lon="9.37124"></trkpt>
      <trkpt lat="47.23705" lon="9.37037"></trkpt>
      <trkpt lat="47.23721" lon="9.36970"></trkpt>
      <trkpt lat="47.23738" lon="9.36868"></trkpt>
      <trkpt lat="47.23789" lon="9.36794"></trkpt>
      <trkpt lat="47.23886" lon="9.36787"></trkpt>
      <trkpt lat="47.23929" lon="9.36798"></trkpt>
      <trkpt lat="47.23983" lon="9.36748"></trkpt>
      <trkpt lat="47.24028" lon="9.36713"></trkpt>
      <trkpt lat="47.24070" lon="9.36642"></trkpt>
      <trkpt lat="47.24112" lon="9.36590"></trkpt>
      <trkpt lat="47.24202" lon="9.36575"></trkpt>
      <trkpt lat="47.24245" lon="9.36559"></trkpt>
      <trkpt lat="47.24289" lon="9.36492"></trkpt>
      <trkpt lat="47.24336" lon="9.36308"></trkpt>
      <trkpt lat="47.24357" lon="9.36208"></trkpt>
      <trkpt lat="47.24379" lon="9.36141"></trkpt>
      <trkpt lat="47.24396" lon="9.36007"></trkpt>
      <trkpt lat="47.24412" lon="9.35933"></trkpt>
      <trkpt lat="47.24399" lon="9.35813"></trkpt>
      <trkpt lat="47.24409" lon="9.35723"></trkpt>
      <trkpt lat="47.24427" lon="9.35644"></trkpt>
      <trkpt lat="47.24422" lon="9.35569"></trkpt>
      <trkpt lat="47.24415" lon="9.35506"></trkpt>
      <trkpt lat="47.24421" lon="9.35478"></trkpt>
      <trkpt lat="47.24421" lon="9.35369"></trkpt>
      <trkpt lat="47.24460" lon="9.35216"></trkpt>
      <trkpt lat="47.24465" lon="9.35023"></trkpt>
      <trkpt lat="47.24518" lon="9.34909"></trkpt>
      <trkpt lat="47.24577" lon="9.34783"></trkpt>
      <trkpt lat="47.24622" lon="9.34693"></trkpt>
      <trkpt lat="47.24696" lon="9.34516"></trkpt>
      <trkpt lat="47.24778" lon="9.34370"></trkpt>
      <trkpt lat="47.24831" lon="9.34337"></trkpt>
      <trkpt lat="47.24946" lon="9.34401"></trkpt>
      <trkpt lat="47.24961" lon="9.34388"></trkpt>
      <trkpt lat="47.24936" lon="9.34283"></trkpt>
      <trkpt lat="47.24939" lon="9.34262"></trkpt>
    </trkseg>
  </trk>
</gpx>
