<?xml version="1.0" encoding="UTF-8"?>
<gpx version="1.1" creator="sigerst-import" xmlns="http://www.topografix.com/GPX/1/1">
  <trk>
    <name>schafbergrunde</name>
    <trkseg>
      <trkpt lat="47.20767" lon="9.35707"></trkpt>
      <trkpt lat="47.20724" lon="9.35709"></trkpt>
      <trkpt lat="47.20655" lon="9.35502"></trkpt>
      <trkpt lat="47.20537" lon="9.35225"></trkpt>
      <trkpt lat="47.20601" lon="9.35239"></trkpt>
      <trkpt lat="47.20673" lon="9.35267"></trkpt>
      <trkpt lat="47.20690" lon="9.35247"></trkpt>
      <trkpt lat="47.20894" lon="9.35237"></trkpt>
      <trkpt lat="47.21052" lon="9.35094"></trkpt>
      <trkpt lat="47.21132" lon="9.35076"></trkpt>
      <trkpt lat="47.21255" lon="9.34692"></trkpt>
      <trkpt lat="47.21340" lon="9.34555"></trkpt>
      <trkpt lat="47.21439" lon="9.34627"></trkpt>
      <trkpt lat="47.21610" lon="9.34653"></trkpt>
      <trkpt lat="47.21692" lon="9.34622"></trkpt>
      <trkpt lat="47.21773" lon="9.34567"></trkpt>
      <trkpt lat="47.21854" lon="9.34602"></trkpt>
      <trkpt lat="47.21964" lon="9.34850"></trkpt>
      <trkpt lat="47.22004" lon="9.34898"></trkpt>
      <trkpt lat="47.22024" lon="9.34962"></trkpt>
      <trkpt lat="47.22059" lon="9.34991"></trkpt>
      <trkpt lat="47.22083" lon="9.35031"></trkpt>
      <trkpt lat="47.22122" lon="9.35103"></trkpt>
      <trkpt lat="47.22160" lon="9.35203"></trkpt>
      <trkpt lat="47.22356" lon="9.35249"></trkpt>
      <trkpt lat="47.22441" lon="9.35257"></trkpt>
      <trkpt lat="47.22596" lon="9.35451"></trkpt>
      <trkpt lat="47.22670" lon="9.35430"></trkpt>
      <trkpt lat="47.22728" lon="9.35400"></trkpt>
      <trkpt lat="47.22831" lon="9.35397"></trkpt>
      <trkpt lat="47.23032" lon="9.35539"></trkpt>
      <trkpt lat="47.23130" lon="9.35763"></trkpt>
      <trkpt lat="47.23222" lon="9.35947"></trkpt>
      <trkpt lat="47.23362" lon="9.35981"></trkpt>
      <trkpt lat="47.23593" lon="9.36111"></trkpt>
      <trkpt lat="47.23721" lon="9.36341"></trkpt>
      <trkpt lat="47.23844" lon="9.36446"></trkpt>
      <trkpt lat="47.24032" lon="9.36633"></trkpt>
      <trkpt lat="47.24021" lon="9.36733"></trkpt>
      <trkpt lat="47.23994" lon="9.36738"></trkpt>
      <trkpt lat="47.23937" lon="9.36789"></trkpt>
      <trkpt lat="47.23909" lon="9.36775"></trkpt>
      <trkpt lat="47.23836" lon="9.36792"></trkpt>
      <trkpt lat="47.23750" lon="9.36837"></trkpt>
      <trkpt lat="47.23711" lon="9.36995"></trkpt>
      <trkpt lat="47.23655" lon="9.37280"></trkpt>
      <trkpt lat="47.23630" lon="9.37435"></trkpt>
      <trkpt lat="47.23603" lon="9.37453"></trkpt>
      <trkpt lat="47.23519" lon="9.37434"></trkpt>
      <trkpt lat="47.23436" lon="9.37583"></trkpt>
      <trkpt lat="47.23341" lon="9.37604"></trkpt>
      <trkpt lat="47.23296" lon="9.37619"></trkpt>
      <trkpt lat="47.23243" lon="9.37608"></trkpt>
      <trkpt lat="47.23213" lon="9.37571"></trkpt>
      <trkpt lat="47.23194" lon="9.37556"></trkpt>
      <trkpt lat="47.23179" lon="9.37563"></trkpt>
      <trkpt lat="47.23156" lon="9.37564"></trkpt>
      <trkpt lat="47.23116" lon="9.37563"></trkpt>
      <trkpt lat="47.23097" lon="9.37533"></trkpt>
      <trkpt lat="47.23065" lon="9.37517"></trkpt>
      <trkpt lat="47.23013" lon="9.37581"></trkpt>
      <trkpt lat="47.22940" lon="9.37602"></trkpt>
      <trkpt lat="47.22775" lon="9.37536"></trkpt>
      <trkpt lat="47.22725" lon="9.37444"></trkpt>
      <trkpt lat="47.22690" lon="9.37367"></trkpt>
      <trkpt lat="47.22659" lon="9.37443"></trkpt>
      <trkpt lat="47.22656" lon="9.37571"></trkpt>
      <trkpt lat="47.22628" lon="9.37677"></trkpt>
      <trkpt lat="47.22606" lon="9.37741"></trkpt>
      <trkpt lat="47.22590" lon="9.37680"></trkpt>
      <trkpt lat="47.22565" lon="9.37690"></trkpt>
      <trkpt lat="47.22539" lon="9.37579"></trkpt>
      <trkpt lat="47.22504" lon="9.37557"></trkpt>
      <trkpt lat="47.22473" lon="9.37541"></trkpt>
      <trkpt lat="47.22446" lon="9.37449"></trkpt>
      <trkpt lat="47.22417" lon="9.37434"></trkpt>
      <trkpt lat="47.22389" lon="9.37421"></trkpt>
      <trkpt lat="47.22368" lon="9.37463"></trkpt>
      <trkpt lat="47.22289" lon="9.37135"></trkpt>
      <trkpt lat="47.22106" lon="9.36917"></trkpt>
      <trkpt lat="47.22026" lon="9.36521"></trkpt>
      <trkpt lat="47.21933" lon="9.36204"></trkpt>
      <trkpt lat="47.21827" lon="9.35831"></trkpt>
      <trkpt lat="47.21762" lon="9.35633"></trkpt>
      <trkpt lat="47.21707" lon="9.35589"></trkpt>
      <trkpt lat="47.21648" lon="9.35602"></trkpt>
      <trkpt lat="47.21605" lon="9.35619"></trkpt>
      <trkpt lat="47.21507" lon="9.35650"></trkpt>
      <trkpt lat="47.21238" lon="9.35661"></trkpt>
      <trkpt lat="47.20986" lon="9.35603"></trkpt>
      <trkpt lat="47.20855" lon="9.35690"></trkpt>
    </trkseg>
  </trk>
</gpx>
