<?xml version="1.0" encoding="UTF-8"?>
<gpx version="1.1" creator="sigerst-import" xmlns="http://www.topografix.com/GPX/1/1">
  <trk>
    <name>schwaegalp</name>
    <trkseg>
      <trkpt lat="47.23112" lon="9.19184"></trkpt>
      <trkpt lat="47.23124" lon="9.19194"></trkpt>
      <trkpt lat="47.23192" lon="9.19285"></trkpt>
      <trkpt lat="47.23271" lon="9.19360"></trkpt>
      <trkpt lat="47.23308" lon="9.19414"></trkpt>
      <trkpt lat="47.23359" lon="9.19553"></trkpt>
      <trkpt lat="47.23433" lon="9.19735"></trkpt>
      <trkpt lat="47.23468" lon="9.19955"></trkpt>
      <trkpt lat="47.23524" lon="9.20056"></trkpt>
      <trkpt lat="47.23605" lon="9.20217"></trkpt>
      <trkpt lat="47.23737" lon="9.20344"></trkpt>
      <trkpt lat="47.23740" lon="9.20510"></trkpt>
      <trkpt lat="47.23722" lon="9.20797"></trkpt>
      <trkpt lat="47.23759" lon="9.20858"></trkpt>
      <trkpt lat="47.23846" lon="9.20724"></trkpt>
      <trkpt lat="47.23983" lon="9.20793"></trkpt>
      <trkpt lat="47.24020" lon="9.20894"></trkpt>
      <trkpt lat="47.24016" lon="9.21183"></trkpt>
      <trkpt lat="47.24023" lon="9.21377"></trkpt>
      <trkpt lat="47.24052" lon="9.21528"></trkpt>
      <trkpt lat="47.24055" lon="9.21667"></trkpt>
      <trkpt lat="47.24114" lon="9.21827"></trkpt>
      <trkpt lat="47.24167" lon="9.22041"></trkpt>
      <trkpt lat="47.24199" lon="9.22241"></trkpt>
      <trkpt lat="47.24148" lon="9.22449"></trkpt>
      <trkpt lat="47.24160" lon="9.22550"></trkpt>
      <trkpt lat="47.24235" lon="9.22667"></trkpt>
      <trkpt lat="47.24327" lon="9.22780"></trkpt>
      <trkpt lat="47.24276" lon="9.22997"></trkpt>
      <trkpt lat="47.24279" lon="9.23172"></trkpt>
      <trkpt lat="47.24306" lon="9.23532"></trkpt>
      <trkpt lat="47.24311" lon="9.23597"></trkpt>
      <trkpt lat="47.24330" lon="9.23781"></trkpt>
      <trkpt lat="47.24348" lon="9.24057"></trkpt>
      <trkpt lat="47.24442" lon="9.24346"></trkpt>
      <trkpt lat="47.24521" lon="9.24722"></trkpt>
      <trkpt lat="47.24582" lon="9.25021"></trkpt>
      <trkpt lat="47.24553" lon="9.25220"></trkpt>
      <trkpt lat="47.24434" lon="9.25527"></trkpt>
      <trkpt lat="47.24474" lon="9.25783"></trkpt>
      <trkpt lat="47.24523" lon="9.26037"></trkpt>
      <trkpt lat="47.24446" lon="9.26184"></trkpt>
      <trkpt lat="47.24359" lon="9.26311"></trkpt>
      <trkpt lat="47.24322" lon="9.26443"></trkpt>
      <trkpt lat="47.24313" lon="9.26575"></trkpt>
      <trkpt lat="47.24277" lon="9.26746"></trkpt>
      <trkpt lat="47.24210" lon="9.26956"></trkpt>
      <trkpt lat="47.24211" lon="9.26963"></trkpt>
      <trkpt lat="47.24195" lon="9.26993"></trkpt>
      <trkpt lat="47.24247" lon="9.27246"></trkpt>
      <trkpt lat="47.24404" lon="9.27442"></trkpt>
      <trkpt lat="47.24486" lon="9.27583"></trkpt>
      <trkpt lat="47.24559" lon="9.27746"></trkpt>
      <trkpt lat="47.24625" lon="9.27969"></trkpt>
      <trkpt lat="47.24717" lon="9.28193"></trkpt>
      <trkpt lat="47.24829" lon="9.28314"></trkpt>
      <trkpt lat="47.24910" lon="9.28524"></trkpt>
      <trkpt lat="47.24927" lon="9.28724"></trkpt>
      <trkpt lat="47.25012" lon="9.28896"></trkpt>
      <trkpt lat="47.25057" lon="9.29010"></trkpt>
      <trkpt lat="47.25158" lon="9.29169"></trkpt>
      <trkpt lat="47.25300" lon="9.29339"></trkpt>
      <trkpt lat="47.25321" lon="9.29499"></trkpt>
      <trkpt lat="47.25294" lon="9.29674"></trkpt>
      <trkpt lat="47.25292" lon="9.29825"></trkpt>
      <trkpt lat="47.25212" lon="9.29998"></trkpt>
      <trkpt lat="47.25232" lon="9.30149"></trkpt>
      <trkpt lat="47.25301" lon="9.30283"></trkpt>
      <trkpt lat="47.25384" lon="9.30441"></trkpt>
      <trkpt lat="47.25426" lon="9.30506"></trkpt>
      <trkpt lat="47.25491" lon="9.30565"></trkpt>
      <trkpt lat="47.25538" lon="9.30610"></trkpt>
      <trkpt lat="47.25573" lon="9.30745"></trkpt>
      <trkpt lat="47.25580" lon="9.30803"></trkpt>
    </trkseg>
  </trk>
</gpx>
