<?xml version="1.0" encoding="UTF-8"?>
<gpx version="1.1" creator="sigerst-import" xmlns="http://www.topografix.com/GPX/1/1">
  <trk>
    <name>schwendiseen-thurfaelle-rundweg</name>
    <trkseg>
      <trkpt lat="47.20099" lon="9.35913"></trkpt>
      <trkpt lat="47.20066" lon="9.35822"></trkpt>
      <trkpt lat="47.19950" lon="9.35710"></trkpt>
      <trkpt lat="47.19839" lon="9.35618"></trkpt>
      <trkpt lat="47.19707" lon="9.35503"></trkpt>
      <trkpt lat="47.19667" lon="9.35328"></trkpt>
      <trkpt lat="47.19689" lon="9.35140"></trkpt>
      <trkpt lat="47.19646" lon="9.35034"></trkpt>
      <trkpt lat="47.19666" lon="9.34808"></trkpt>
      <trkpt lat="47.19638" lon="9.34642"></trkpt>
      <trkpt lat="47.19599" lon="9.34572"></trkpt>
      <trkpt lat="47.19571" lon="9.34493"></trkpt>
      <trkpt lat="47.19529" lon="9.34357"></trkpt>
      <trkpt lat="47.19498" lon="9.34330"></trkpt>
      <trkpt lat="47.19460" lon="9.34283"></trkpt>
      <trkpt lat="47.19374" lon="9.34428"></trkpt>
      <trkpt lat="47.19297" lon="9.34681"></trkpt>
      <trkpt lat="47.19159" lon="9.34517"></trkpt>
      <trkpt lat="47.19084" lon="9.34480"></trkpt>
      <trkpt lat="47.19010" lon="9.34432"></trkpt>
      <trkpt lat="47.18996" lon="9.34349"></trkpt>
      <trkpt lat="47.19011" lon="9.34415"></trkpt>
      <trkpt lat="47.18989" lon="9.34235"></trkpt>
      <trkpt lat="47.18970" lon="9.33880"></trkpt>
      <trkpt lat="47.18979" lon="9.33604"></trkpt>
      <trkpt lat="47.18980" lon="9.33352"></trkpt>
      <trkpt lat="47.18919" lon="9.33068"></trkpt>
      <trkpt lat="47.18871" lon="9.33002"></trkpt>
      <trkpt lat="47.18796" lon="9.33252"></trkpt>
      <trkpt lat="47.18608" lon="9.33282"></trkpt>
      <trkpt lat="47.18526" lon="9.33232"></trkpt>
      <trkpt lat="47.18570" lon="9.33142"></trkpt>
      <trkpt lat="47.18590" lon="9.32992"></trkpt>
      <trkpt lat="47.18747" lon="9.32990"></trkpt>
      <trkpt lat="47.18800" lon="9.32901"></trkpt>
      <trkpt lat="47.18874" lon="9.32753"></trkpt>
      <trkpt lat="47.19044" lon="9.32709"></trkpt>
      <trkpt lat="47.19197" lon="9.32634"></trkpt>
      <trkpt lat="47.19283" lon="9.32349"></trkpt>
      <trkpt lat="47.19290" lon="9.32270"></trkpt>
      <trkpt lat="47.19355" lon="9.32037"></trkpt>
      <trkpt lat="47.19362" lon="9.31907"></trkpt>
      <trkpt lat="47.19371" lon="9.31803"></trkpt>
      <trkpt lat="47.19402" lon="9.31766"></trkpt>
      <trkpt lat="47.19418" lon="9.31739"></trkpt>
      <trkpt lat="47.19445" lon="9.31730"></trkpt>
      <trkpt lat="47.19494" lon="9.31632"></trkpt>
      <trkpt lat="47.19537" lon="9.31489"></trkpt>
      <trkpt lat="47.19615" lon="9.31266"></trkpt>
      <trkpt lat="47.19586" lon="9.31161"></trkpt>
      <trkpt lat="47.19595" lon="9.31080"></trkpt>
      <trkpt lat="47.19639" lon="9.31070"></trkpt>
      <trkpt lat="47.19709" lon="9.31070"></trkpt>
      <trkpt lat="47.19810" lon="9.31033"></trkpt>
      <trkpt lat="47.19951" lon="9.31081"></trkpt>
      <trkpt lat="47.20062" lon="9.31193"></trkpt>
      <trkpt lat="47.20113" lon="9.31177"></trkpt>
      <trkpt lat="47.20141" lon="9.31168"></trkpt>
      <trkpt lat="47.20186" lon="9.31163"></trkpt>
      <trkpt lat="47.20233" lon="9.31177"></trkpt>
      <trkpt lat="47.20230" lon="9.31177"></trkpt>
      <trkpt lat="47.20177" lon="9.31188"></trkpt>
      <trkpt lat="47.20198" lon="9.31144"></trkpt>
      <trkpt lat="47.20226" lon="9.31163"></trkpt>
      <trkpt lat="47.20224" lon="9.31172"></trkpt>
      <trkpt lat="47.20234" lon="9.31172"></trkpt>
      <trkpt lat="47.20171" lon="9.31162"></trkpt>
      <trkpt lat="47.20137" lon="9.31155"></trkpt>
      <trkpt lat="47.20126" lon="9.31220"></trkpt>
      <trkpt lat="47.20179" lon="9.31308"></trkpt>
      <trkpt lat="47.20197" lon="9.31275"></trkpt>
      <trkpt lat="47.20234" lon="9.31348"></trkpt>
      <trkpt lat="47.20270" lon="9.31338"></trkpt>
      <trkpt lat="47.20336" lon="9.31362"></trkpt>
      <trkpt lat="47.20434" lon="9.31447"></trkpt>
      <trkpt lat="47.20502" lon="9.31346"></trkpt>
      <trkpt lat="47.20578" lon="9.31309"></trkpt>
      <trkpt lat="47.20591" lon="9.31559"></trkpt>
      <trkpt lat="47.20663" lon="9.31737"></trkpt>
      <trkpt lat="47.20654" lon="9.31841"></trkpt>
      <trkpt lat="47.20691" lon="9.31849"></trkpt>
      <trkpt lat="47.20658" lon="9.31882"></trkpt>
      <trkpt lat="47.20525" lon="9.31844"></trkpt>
      <trkpt lat="47.20444" lon="9.31985"></trkpt>
      <trkpt lat="47.20485" lon="9.32245"></trkpt>
      <trkpt lat="47.20517" lon="9.32587"></trkpt>
      <trkpt lat="47.20430" lon="9.33043"></trkpt>
      <trkpt lat="47.20346" lon="9.33285"></trkpt>
      <trkpt lat="47.20296" lon="9.33511"></trkpt>
      <trkpt lat="47.20314" lon="9.33769"></trkpt>
      <trkpt lat="47.20316" lon="9.34018"></trkpt>
      <trkpt lat="47.20336" lon="9.34215"></trkpt>
      <trkpt lat="47.20340" lon="9.34613"></trkpt>
      <trkpt lat="47.20351" lon="9.34933"></trkpt>
      <trkpt lat="47.20337" lon="9.35039"></trkpt>
      <trkpt lat="47.20228" lon="9.35266"></trkpt>
      <trkpt lat="47.20042" lon="9.35998"></trkpt>
      <trkpt lat="47.20045" lon="9.35985"></trkpt>
    </trkseg>
  </trk>
</gpx>
