<?xml version="1.0" encoding="UTF-8"?>
<gpx version="1.1" creator="sigerst-import" xmlns="http://www.topografix.com/GPX/1/1">
  <trk>
    <name>spaziergang-dorf</name>
    <trkseg>
      <trkpt lat="47.19988" lon="9.37018"></trkpt>
      <trkpt lat="47.20015" lon="9.37000"></trkpt>
      <trkpt lat="47.20050" lon="9.37002"></trkpt>
      <trkpt lat="47.20110" lon="9.37074"></trkpt>
      <trkpt lat="47.20091" lon="9.37135"></trkpt>
      <trkpt lat="47.20181" lon="9.37234"></trkpt>
      <trkpt lat="47.20193" lon="9.37234"></trkpt>
      <trkpt lat="47.20224" lon="9.37188"></trkpt>
      <trkpt lat="47.20286" lon="9.37195"></trkpt>
      <trkpt lat="47.20304" lon="9.37179"></trkpt>
      <trkpt lat="47.20316" lon="9.37134"></trkpt>
      <trkpt lat="47.20294" lon="9.37048"></trkpt>
      <trkpt lat="47.20292" lon="9.37021"></trkpt>
      <trkpt lat="47.20304" lon="9.36990"></trkpt>
      <trkpt lat="47.20293" lon="9.36955"></trkpt>
      <trkpt lat="47.20276" lon="9.36895"></trkpt>
      <trkpt lat="47.20239" lon="9.36782"></trkpt>
      <trkpt lat="47.20237" lon="9.36739"></trkpt>
      <trkpt lat="47.20242" lon="9.36621"></trkpt>
      <trkpt lat="47.20202" lon="9.36310"></trkpt>
      <trkpt lat="47.20180" lon="9.36191"></trkpt>
      <trkpt lat="47.20195" lon="9.36141"></trkpt>
      <trkpt lat="47.20191" lon="9.36126"></trkpt>
      <trkpt lat="47.20257" lon="9.36017"></trkpt>
      <trkpt lat="47.20348" lon="9.35959"></trkpt>
      <trkpt lat="47.20446" lon="9.35920"></trkpt>
      <trkpt lat="47.20462" lon="9.35889"></trkpt>
      <trkpt lat="47.20455" lon="9.35881"></trkpt>
      <trkpt lat="47.20430" lon="9.35892"></trkpt>
      <trkpt lat="47.20384" lon="9.35904"></trkpt>
      <trkpt lat="47.20289" lon="9.35880"></trkpt>
      <trkpt lat="47.20266" lon="9.35872"></trkpt>
      <trkpt lat="47.20285" lon="9.35854"></trkpt>
      <trkpt lat="47.20326" lon="9.35829"></trkpt>
      <trkpt lat="47.20368" lon="9.35788"></trkpt>
      <trkpt lat="47.20362" lon="9.35746"></trkpt>
      <trkpt lat="47.20376" lon="9.35674"></trkpt>
      <trkpt lat="47.20361" lon="9.35601"></trkpt>
      <trkpt lat="47.20359" lon="9.35533"></trkpt>
      <trkpt lat="47.20365" lon="9.35406"></trkpt>
      <trkpt lat="47.20364" lon="9.35316"></trkpt>
      <trkpt lat="47.20346" lon="9.35205"></trkpt>
      <trkpt lat="47.20340" lon="9.35133"></trkpt>
      <trkpt lat="47.20338" lon="9.35074"></trkpt>
    </trkseg>
  </trk>
</gpx>
