<?xml version="1.0" encoding="UTF-8"?>
<gpx version="1.1" creator="manual-approx" xmlns="http://www.topografix.com/GPX/1/1">
  <trk>
    <name>Toggenburger Hoehenweg: Alp Selun - Alp Sellamatt</name>
    <trkseg>
      <trkpt lat="47.170300" lon="9.248600"><ele>1579</ele></trkpt>
      <trkpt lat="47.170486" lon="9.249176"><ele>1586</ele></trkpt>
      <trkpt lat="47.170744" lon="9.249712"><ele>1592</ele></trkpt>
      <trkpt lat="47.171069" lon="9.250212"><ele>1595</ele></trkpt>
      <trkpt lat="47.171456" lon="9.250679"><ele>1595</ele></trkpt>
      <trkpt lat="47.171911" lon="9.251109"><ele>1594</ele></trkpt>
      <trkpt lat="47.172460" lon="9.251489"><ele>1597</ele></trkpt>
      <trkpt lat="47.173114" lon="9.251812"><ele>1608</ele></trkpt>
      <trkpt lat="47.173784" lon="9.252126"><ele>1620</ele></trkpt>
      <trkpt lat="47.174287" lon="9.252530"><ele>1616</ele></trkpt>
      <trkpt lat="47.174542" lon="9.253068"><ele>1589</ele></trkpt>
      <trkpt lat="47.174661" lon="9.253680"><ele>1556</ele></trkpt>
      <trkpt lat="47.174770" lon="9.254297"><ele>1535</ele></trkpt>
      <trkpt lat="47.174880" lon="9.254914"><ele>1527</ele></trkpt>
      <trkpt lat="47.174936" lon="9.255559"><ele>1529</ele></trkpt>
      <trkpt lat="47.174902" lon="9.256253"><ele>1534</ele></trkpt>
      <trkpt lat="47.174764" lon="9.257004"><ele>1541</ele></trkpt>
      <trkpt lat="47.174524" lon="9.257809"><ele>1548</ele></trkpt>
      <trkpt lat="47.174187" lon="9.258667"><ele>1554</ele></trkpt>
      <trkpt lat="47.173765" lon="9.259571"><ele>1557</ele></trkpt>
      <trkpt lat="47.173273" lon="9.260512"><ele>1557</ele></trkpt>
      <trkpt lat="47.172728" lon="9.261483"><ele>1553</ele></trkpt>
      <trkpt lat="47.172151" lon="9.262470"><ele>1545</ele></trkpt>
      <trkpt lat="47.171566" lon="9.263462"><ele>1534</ele></trkpt>
      <trkpt lat="47.170996" lon="9.264445"><ele>1522</ele></trkpt>
      <trkpt lat="47.170466" lon="9.265407"><ele>1510</ele></trkpt>
      <trkpt lat="47.169999" lon="9.266335"><ele>1500</ele></trkpt>
      <trkpt lat="47.169619" lon="9.267216"><ele>1492</ele></trkpt>
      <trkpt lat="47.169345" lon="9.268040"><ele>1488</ele></trkpt>
      <trkpt lat="47.169194" lon="9.268797"><ele>1487</ele></trkpt>
      <trkpt lat="47.169180" lon="9.269481"><ele>1490</ele></trkpt>
      <trkpt lat="47.169312" lon="9.270085"><ele>1496</ele></trkpt>
      <trkpt lat="47.169595" lon="9.270609"><ele>1503</ele></trkpt>
      <trkpt lat="47.170027" lon="9.271051"><ele>1511</ele></trkpt>
      <trkpt lat="47.170603" lon="9.271416"><ele>1516</ele></trkpt>
      <trkpt lat="47.171314" lon="9.271708"><ele>1519</ele></trkpt>
      <trkpt lat="47.172145" lon="9.271935"><ele>1519</ele></trkpt>
      <trkpt lat="47.173077" lon="9.272108"><ele>1515</ele></trkpt>
      <trkpt lat="47.174088" lon="9.272238"><ele>1507</ele></trkpt>
      <trkpt lat="47.175153" lon="9.272339"><ele>1496</ele></trkpt>
      <trkpt lat="47.176245" lon="9.272425"><ele>1484</ele></trkpt>
      <trkpt lat="47.177337" lon="9.272511"><ele>1473</ele></trkpt>
      <trkpt lat="47.178402" lon="9.272612"><ele>1462</ele></trkpt>
      <trkpt lat="47.179413" lon="9.272742"><ele>1454</ele></trkpt>
      <trkpt lat="47.180345" lon="9.272915"><ele>1450</ele></trkpt>
      <trkpt lat="47.181176" lon="9.273142"><ele>1450</ele></trkpt>
      <trkpt lat="47.181887" lon="9.273434"><ele>1453</ele></trkpt>
      <trkpt lat="47.182463" lon="9.273799"><ele>1458</ele></trkpt>
      <trkpt lat="47.182895" lon="9.274241"><ele>1466</ele></trkpt>
      <trkpt lat="47.183178" lon="9.274765"><ele>1473</ele></trkpt>
      <trkpt lat="47.183310" lon="9.275369"><ele>1479</ele></trkpt>
      <trkpt lat="47.183296" lon="9.276053"><ele>1482</ele></trkpt>
      <trkpt lat="47.183145" lon="9.276810"><ele>1481</ele></trkpt>
      <trkpt lat="47.182871" lon="9.277634"><ele>1477</ele></trkpt>
      <trkpt lat="47.182491" lon="9.278515"><ele>1469</ele></trkpt>
      <trkpt lat="47.182024" lon="9.279443"><ele>1459</ele></trkpt>
      <trkpt lat="47.181494" lon="9.280405"><ele>1447</ele></trkpt>
      <trkpt lat="47.180924" lon="9.281388"><ele>1435</ele></trkpt>
      <trkpt lat="47.180339" lon="9.282380"><ele>1424</ele></trkpt>
      <trkpt lat="47.179762" lon="9.283367"><ele>1416</ele></trkpt>
      <trkpt lat="47.179218" lon="9.284338"><ele>1412</ele></trkpt>
      <trkpt lat="47.178725" lon="9.285279"><ele>1412</ele></trkpt>
      <trkpt lat="47.178303" lon="9.286183"><ele>1415</ele></trkpt>
      <trkpt lat="47.177966" lon="9.287041"><ele>1421</ele></trkpt>
      <trkpt lat="47.177726" lon="9.287846"><ele>1428</ele></trkpt>
      <trkpt lat="47.177589" lon="9.288596"><ele>1435</ele></trkpt>
      <trkpt lat="47.177557" lon="9.289289"><ele>1441</ele></trkpt>
      <trkpt lat="47.177629" lon="9.289926"><ele>1444</ele></trkpt>
      <trkpt lat="47.177799" lon="9.290510"><ele>1443</ele></trkpt>
      <trkpt lat="47.178058" lon="9.291046"><ele>1439</ele></trkpt>
      <trkpt lat="47.178393" lon="9.291541"><ele>1431</ele></trkpt>
      <trkpt lat="47.178788" lon="9.292004"><ele>1421</ele></trkpt>
      <trkpt lat="47.179226" lon="9.292443"><ele>1409</ele></trkpt>
      <trkpt lat="47.179689" lon="9.292869"><ele>1397</ele></trkpt>
      <trkpt lat="47.180158" lon="9.293292"><ele>1386</ele></trkpt>
      <trkpt lat="47.180614" lon="9.293722"><ele>1379</ele></trkpt>
      <trkpt lat="47.181040" lon="9.294167"><ele>1374</ele></trkpt>
      <trkpt lat="47.181422" lon="9.294637"><ele>1374</ele></trkpt>
      <trkpt lat="47.181746" lon="9.295138"><ele>1377</ele></trkpt>
      <trkpt lat="47.182004" lon="9.295674"><ele>1383</ele></trkpt>
      <trkpt lat="47.182190" lon="9.296250"><ele>1390</ele></trkpt>
    </trkseg>
  </trk>
</gpx>
