<?xml version="1.0" encoding="UTF-8"?>
<gpx version="1.1" creator="komoot.com (Export via Ferienhaus-Sigerst-Tooling)" xmlns="http://www.topografix.com/GPX/1/1" xmlns:xsi="http://www.w3.org/2001/XMLSchema-instance" xsi:schemaLocation="http://www.topografix.com/GPX/1/1 http://www.topografix.com/GPX/1/1/gpx.xsd">
  <metadata>
    <name>Torloch</name>
  </metadata>
  <trk>
    <name>Torloch</name>
    <trkseg>
      <trkpt lat="47.20105" lon="9.37092"></trkpt>
      <trkpt lat="47.20035" lon="9.36997"></trkpt>
      <trkpt lat="47.19959" lon="9.37082"></trkpt>
      <trkpt lat="47.19919" lon="9.37100"></trkpt>
      <trkpt lat="47.19894" lon="9.36883"></trkpt>
      <trkpt lat="47.19844" lon="9.36951"></trkpt>
      <trkpt lat="47.19781" lon="9.37060"></trkpt>
      <trkpt lat="47.19674" lon="9.37153"></trkpt>
      <trkpt lat="47.19553" lon="9.37374"></trkpt>
      <trkpt lat="47.19533" lon="9.37355"></trkpt>
      <trkpt lat="47.19508" lon="9.37012"></trkpt>
      <trkpt lat="47.19479" lon="9.36861"></trkpt>
      <trkpt lat="47.19460" lon="9.36723"></trkpt>
      <trkpt lat="47.19458" lon="9.36646"></trkpt>
      <trkpt lat="47.19397" lon="9.36482"></trkpt>
      <trkpt lat="47.19404" lon="9.36285"></trkpt>
      <trkpt lat="47.19358" lon="9.36188"></trkpt>
      <trkpt lat="47.19310" lon="9.36043"></trkpt>
      <trkpt lat="47.19262" lon="9.36005"></trkpt>
      <trkpt lat="47.19248" lon="9.35862"></trkpt>
      <trkpt lat="47.19170" lon="9.35893"></trkpt>
      <trkpt lat="47.19127" lon="9.35880"></trkpt>
      <trkpt lat="47.19132" lon="9.35727"></trkpt>
      <trkpt lat="47.19110" lon="9.35431"></trkpt>
      <trkpt lat="47.19107" lon="9.35361"></trkpt>
      <trkpt lat="47.19111" lon="9.35246"></trkpt>
      <trkpt lat="47.19112" lon="9.35042"></trkpt>
      <trkpt lat="47.19114" lon="9.34862"></trkpt>
      <trkpt lat="47.19127" lon="9.34592"></trkpt>
      <trkpt lat="47.19120" lon="9.34483"></trkpt>
      <trkpt lat="47.19052" lon="9.34451"></trkpt>
      <trkpt lat="47.19008" lon="9.34424"></trkpt>
      <trkpt lat="47.19009" lon="9.34279"></trkpt>
      <trkpt lat="47.18975" lon="9.34071"></trkpt>
      <trkpt lat="47.18983" lon="9.33809"></trkpt>
      <trkpt lat="47.18984" lon="9.33623"></trkpt>
      <trkpt lat="47.18958" lon="9.33267"></trkpt>
      <trkpt lat="47.18952" lon="9.33172"></trkpt>
      <trkpt lat="47.18915" lon="9.33177"></trkpt>
      <trkpt lat="47.18872" lon="9.33015"></trkpt>
      <trkpt lat="47.18924" lon="9.32989"></trkpt>
      <trkpt lat="47.18899" lon="9.32925"></trkpt>
      <trkpt lat="47.18855" lon="9.32762"></trkpt>
      <trkpt lat="47.18878" lon="9.32555"></trkpt>
      <trkpt lat="47.18717" lon="9.32248"></trkpt>
      <trkpt lat="47.18548" lon="9.32147"></trkpt>
      <trkpt lat="47.18466" lon="9.32088"></trkpt>
      <trkpt lat="47.18483" lon="9.31869"></trkpt>
      <trkpt lat="47.18448" lon="9.31678"></trkpt>
      <trkpt lat="47.18430" lon="9.31489"></trkpt>
      <trkpt lat="47.18421" lon="9.31373"></trkpt>
      <trkpt lat="47.18485" lon="9.31168"></trkpt>
      <trkpt lat="47.18449" lon="9.31050"></trkpt>
      <trkpt lat="47.18379" lon="9.30948"></trkpt>
      <trkpt lat="47.18142" lon="9.30872"></trkpt>
      <trkpt lat="47.18049" lon="9.30875"></trkpt>
      <trkpt lat="47.17888" lon="9.30823"></trkpt>
      <trkpt lat="47.17843" lon="9.30711"></trkpt>
      <trkpt lat="47.17910" lon="9.30597"></trkpt>
      <trkpt lat="47.17902" lon="9.30397"></trkpt>
      <trkpt lat="47.17868" lon="9.30398"></trkpt>
      <trkpt lat="47.17838" lon="9.30501"></trkpt>
      <trkpt lat="47.17774" lon="9.30584"></trkpt>
      <trkpt lat="47.17722" lon="9.30574"></trkpt>
      <trkpt lat="47.17670" lon="9.30670"></trkpt>
      <trkpt lat="47.17567" lon="9.30641"></trkpt>
      <trkpt lat="47.17541" lon="9.30514"></trkpt>
      <trkpt lat="47.17563" lon="9.30439"></trkpt>
      <trkpt lat="47.17527" lon="9.30343"></trkpt>
      <trkpt lat="47.17543" lon="9.30223"></trkpt>
      <trkpt lat="47.17538" lon="9.30174"></trkpt>
      <trkpt lat="47.17612" lon="9.30131"></trkpt>
      <trkpt lat="47.17620" lon="9.30050"></trkpt>
      <trkpt lat="47.17594" lon="9.29921"></trkpt>
      <trkpt lat="47.17544" lon="9.29759"></trkpt>
      <trkpt lat="47.17531" lon="9.29675"></trkpt>
      <trkpt lat="47.17471" lon="9.29546"></trkpt>
      <trkpt lat="47.17351" lon="9.29345"></trkpt>
      <trkpt lat="47.17276" lon="9.29294"></trkpt>
      <trkpt lat="47.17129" lon="9.29208"></trkpt>
      <trkpt lat="47.17152" lon="9.29151"></trkpt>
      <trkpt lat="47.17209" lon="9.29102"></trkpt>
      <trkpt lat="47.17300" lon="9.29081"></trkpt>
      <trkpt lat="47.17302" lon="9.29020"></trkpt>
      <trkpt lat="47.17113" lon="9.28936"></trkpt>
      <trkpt lat="47.17072" lon="9.28892"></trkpt>
      <trkpt lat="47.17046" lon="9.28825"></trkpt>
      <trkpt lat="47.17048" lon="9.28777"></trkpt>
      <trkpt lat="47.17010" lon="9.28757"></trkpt>
      <trkpt lat="47.16916" lon="9.28691"></trkpt>
      <trkpt lat="47.16857" lon="9.28596"></trkpt>
      <trkpt lat="47.16882" lon="9.28510"></trkpt>
      <trkpt lat="47.16909" lon="9.28410"></trkpt>
      <trkpt lat="47.16886" lon="9.28317"></trkpt>
      <trkpt lat="47.16867" lon="9.28258"></trkpt>
      <trkpt lat="47.16860" lon="9.28093"></trkpt>
      <trkpt lat="47.16837" lon="9.27971"></trkpt>
      <trkpt lat="47.16893" lon="9.27900"></trkpt>
      <trkpt lat="47.16857" lon="9.27670"></trkpt>
      <trkpt lat="47.16845" lon="9.27552"></trkpt>
      <trkpt lat="47.16705" lon="9.27434"></trkpt>
      <trkpt lat="47.16680" lon="9.27329"></trkpt>
      <trkpt lat="47.16628" lon="9.27238"></trkpt>
      <trkpt lat="47.16572" lon="9.27155"></trkpt>
      <trkpt lat="47.16534" lon="9.27073"></trkpt>
      <trkpt lat="47.16503" lon="9.26938"></trkpt>
      <trkpt lat="47.16565" lon="9.26847"></trkpt>
      <trkpt lat="47.16655" lon="9.26803"></trkpt>
      <trkpt lat="47.16819" lon="9.26797"></trkpt>
      <trkpt lat="47.16856" lon="9.26653"></trkpt>
      <trkpt lat="47.16763" lon="9.26555"></trkpt>
      <trkpt lat="47.16672" lon="9.26442"></trkpt>
      <trkpt lat="47.16638" lon="9.26376"></trkpt>
      <trkpt lat="47.16571" lon="9.26373"></trkpt>
      <trkpt lat="47.16565" lon="9.26472"></trkpt>
      <trkpt lat="47.16571" lon="9.26533"></trkpt>
      <trkpt lat="47.16461" lon="9.26504"></trkpt>
      <trkpt lat="47.16384" lon="9.26422"></trkpt>
      <trkpt lat="47.16307" lon="9.26332"></trkpt>
      <trkpt lat="47.16252" lon="9.26193"></trkpt>
      <trkpt lat="47.16198" lon="9.26271"></trkpt>
      <trkpt lat="47.16152" lon="9.26334"></trkpt>
      <trkpt lat="47.16099" lon="9.26495"></trkpt>
      <trkpt lat="47.16070" lon="9.26576"></trkpt>
    </trkseg>
  </trk>
</gpx>
