<?xml version="1.0" encoding="UTF-8"?>
<gpx version="1.1" creator="sigerst-import" xmlns="http://www.topografix.com/GPX/1/1">
  <trk>
    <name>turbenriet</name>
    <trkseg>
      <trkpt lat="47.18325" lon="9.44308"></trkpt>
      <trkpt lat="47.18237" lon="9.44165"></trkpt>
      <trkpt lat="47.18150" lon="9.44034"></trkpt>
      <trkpt lat="47.18062" lon="9.43933"></trkpt>
      <trkpt lat="47.18009" lon="9.43830"></trkpt>
      <trkpt lat="47.18021" lon="9.43745"></trkpt>
      <trkpt lat="47.18107" lon="9.43787"></trkpt>
      <trkpt lat="47.18207" lon="9.43783"></trkpt>
      <trkpt lat="47.18301" lon="9.43817"></trkpt>
      <trkpt lat="47.18395" lon="9.43791"></trkpt>
      <trkpt lat="47.18478" lon="9.43725"></trkpt>
      <trkpt lat="47.18554" lon="9.43655"></trkpt>
      <trkpt lat="47.18608" lon="9.43549"></trkpt>
      <trkpt lat="47.18681" lon="9.43506"></trkpt>
      <trkpt lat="47.18592" lon="9.43488"></trkpt>
      <trkpt lat="47.18499" lon="9.43483"></trkpt>
      <trkpt lat="47.18409" lon="9.43445"></trkpt>
      <trkpt lat="47.18320" lon="9.43395"></trkpt>
      <trkpt lat="47.18235" lon="9.43335"></trkpt>
      <trkpt lat="47.18169" lon="9.43271"></trkpt>
      <trkpt lat="47.18234" lon="9.43215"></trkpt>
      <trkpt lat="47.18309" lon="9.43253"></trkpt>
      <trkpt lat="47.18384" lon="9.43211"></trkpt>
      <trkpt lat="47.18466" lon="9.43161"></trkpt>
      <trkpt lat="47.18532" lon="9.43084"></trkpt>
      <trkpt lat="47.18595" lon="9.43002"></trkpt>
      <trkpt lat="47.18647" lon="9.42911"></trkpt>
      <trkpt lat="47.18674" lon="9.42835"></trkpt>
      <trkpt lat="47.18710" lon="9.42734"></trkpt>
      <trkpt lat="47.18765" lon="9.42658"></trkpt>
      <trkpt lat="47.18838" lon="9.42634"></trkpt>
      <trkpt lat="47.18854" lon="9.42559"></trkpt>
      <trkpt lat="47.18765" lon="9.42579"></trkpt>
      <trkpt lat="47.18673" lon="9.42617"></trkpt>
      <trkpt lat="47.18574" lon="9.42662"></trkpt>
      <trkpt lat="47.18474" lon="9.42693"></trkpt>
      <trkpt lat="47.18386" lon="9.42684"></trkpt>
      <trkpt lat="47.18321" lon="9.42623"></trkpt>
      <trkpt lat="47.18241" lon="9.42593"></trkpt>
      <trkpt lat="47.18170" lon="9.42536"></trkpt>
      <trkpt lat="47.18105" lon="9.42469"></trkpt>
      <trkpt lat="47.18041" lon="9.42406"></trkpt>
      <trkpt lat="47.17968" lon="9.42363"></trkpt>
      <trkpt lat="47.17921" lon="9.42296"></trkpt>
      <trkpt lat="47.17974" lon="9.42282"></trkpt>
      <trkpt lat="47.18053" lon="9.42285"></trkpt>
      <trkpt lat="47.18151" lon="9.42243"></trkpt>
      <trkpt lat="47.18247" lon="9.42189"></trkpt>
      <trkpt lat="47.18343" lon="9.42161"></trkpt>
      <trkpt lat="47.18412" lon="9.42196"></trkpt>
      <trkpt lat="47.18425" lon="9.41926"></trkpt>
      <trkpt lat="47.18313" lon="9.41891"></trkpt>
      <trkpt lat="47.18215" lon="9.41831"></trkpt>
      <trkpt lat="47.18084" lon="9.41793"></trkpt>
      <trkpt lat="47.17948" lon="9.41798"></trkpt>
      <trkpt lat="47.17833" lon="9.41707"></trkpt>
      <trkpt lat="47.17741" lon="9.41472"></trkpt>
      <trkpt lat="47.17703" lon="9.41313"></trkpt>
      <trkpt lat="47.17629" lon="9.41147"></trkpt>
      <trkpt lat="47.17730" lon="9.41243"></trkpt>
      <trkpt lat="47.17828" lon="9.41201"></trkpt>
      <trkpt lat="47.17989" lon="9.41151"></trkpt>
      <trkpt lat="47.18140" lon="9.41108"></trkpt>
      <trkpt lat="47.18186" lon="9.40873"></trkpt>
      <trkpt lat="47.18300" lon="9.40799"></trkpt>
      <trkpt lat="47.18338" lon="9.40701"></trkpt>
      <trkpt lat="47.18193" lon="9.40618"></trkpt>
      <trkpt lat="47.18063" lon="9.40525"></trkpt>
      <trkpt lat="47.17915" lon="9.40577"></trkpt>
      <trkpt lat="47.17756" lon="9.40377"></trkpt>
      <trkpt lat="47.17693" lon="9.40148"></trkpt>
      <trkpt lat="47.17542" lon="9.39947"></trkpt>
      <trkpt lat="47.17358" lon="9.39765"></trkpt>
      <trkpt lat="47.17237" lon="9.39592"></trkpt>
      <trkpt lat="47.17198" lon="9.39345"></trkpt>
      <trkpt lat="47.17269" lon="9.39480"></trkpt>
      <trkpt lat="47.17346" lon="9.39431"></trkpt>
      <trkpt lat="47.17516" lon="9.39512"></trkpt>
      <trkpt lat="47.17630" lon="9.39482"></trkpt>
      <trkpt lat="47.17714" lon="9.39483"></trkpt>
      <trkpt lat="47.17683" lon="9.39416"></trkpt>
      <trkpt lat="47.17574" lon="9.39248"></trkpt>
      <trkpt lat="47.17421" lon="9.38976"></trkpt>
      <trkpt lat="47.17253" lon="9.38636"></trkpt>
      <trkpt lat="47.17188" lon="9.38459"></trkpt>
    </trkseg>
  </trk>
</gpx>
