<?xml version="1.0" encoding="UTF-8"?>
<gpx version="1.1" creator="sigerst-import" xmlns="http://www.topografix.com/GPX/1/1">
  <trk>
    <name>vorder-hoehi</name>
    <trkseg>
      <trkpt lat="47.18560" lon="9.25030"></trkpt>
      <trkpt lat="47.18471" lon="9.25020"></trkpt>
      <trkpt lat="47.18385" lon="9.25039"></trkpt>
      <trkpt lat="47.18312" lon="9.25042"></trkpt>
      <trkpt lat="47.18233" lon="9.24993"></trkpt>
      <trkpt lat="47.18181" lon="9.24892"></trkpt>
      <trkpt lat="47.18127" lon="9.24804"></trkpt>
      <trkpt lat="47.18086" lon="9.24715"></trkpt>
      <trkpt lat="47.18065" lon="9.24628"></trkpt>
      <trkpt lat="47.17999" lon="9.24573"></trkpt>
      <trkpt lat="47.17954" lon="9.24494"></trkpt>
      <trkpt lat="47.17912" lon="9.24428"></trkpt>
      <trkpt lat="47.17882" lon="9.24371"></trkpt>
      <trkpt lat="47.17845" lon="9.24285"></trkpt>
      <trkpt lat="47.17800" lon="9.24231"></trkpt>
      <trkpt lat="47.17786" lon="9.24147"></trkpt>
      <trkpt lat="47.17741" lon="9.24091"></trkpt>
      <trkpt lat="47.17673" lon="9.24047"></trkpt>
      <trkpt lat="47.17549" lon="9.24032"></trkpt>
      <trkpt lat="47.17477" lon="9.23918"></trkpt>
      <trkpt lat="47.17433" lon="9.23806"></trkpt>
      <trkpt lat="47.17372" lon="9.23737"></trkpt>
      <trkpt lat="47.17331" lon="9.23667"></trkpt>
      <trkpt lat="47.17308" lon="9.23603"></trkpt>
      <trkpt lat="47.17287" lon="9.23518"></trkpt>
      <trkpt lat="47.17307" lon="9.23444"></trkpt>
      <trkpt lat="47.17255" lon="9.23448"></trkpt>
      <trkpt lat="47.17219" lon="9.23403"></trkpt>
      <trkpt lat="47.17165" lon="9.23364"></trkpt>
      <trkpt lat="47.17114" lon="9.23307"></trkpt>
      <trkpt lat="47.17055" lon="9.23264"></trkpt>
      <trkpt lat="47.17116" lon="9.23252"></trkpt>
      <trkpt lat="47.17180" lon="9.23228"></trkpt>
      <trkpt lat="47.17238" lon="9.23231"></trkpt>
      <trkpt lat="47.17308" lon="9.23225"></trkpt>
      <trkpt lat="47.17302" lon="9.23169"></trkpt>
      <trkpt lat="47.17256" lon="9.23109"></trkpt>
      <trkpt lat="47.17193" lon="9.23061"></trkpt>
      <trkpt lat="47.17137" lon="9.23007"></trkpt>
      <trkpt lat="47.17094" lon="9.22942"></trkpt>
      <trkpt lat="47.17044" lon="9.22871"></trkpt>
      <trkpt lat="47.17006" lon="9.22789"></trkpt>
      <trkpt lat="47.16950" lon="9.22743"></trkpt>
      <trkpt lat="47.16896" lon="9.22681"></trkpt>
      <trkpt lat="47.16842" lon="9.22623"></trkpt>
      <trkpt lat="47.16808" lon="9.22532"></trkpt>
      <trkpt lat="47.16825" lon="9.22458"></trkpt>
      <trkpt lat="47.16887" lon="9.22470"></trkpt>
      <trkpt lat="47.16946" lon="9.22423"></trkpt>
      <trkpt lat="47.17000" lon="9.22468"></trkpt>
      <trkpt lat="47.17065" lon="9.22498"></trkpt>
      <trkpt lat="47.17125" lon="9.22535"></trkpt>
      <trkpt lat="47.17186" lon="9.22575"></trkpt>
      <trkpt lat="47.17184" lon="9.22464"></trkpt>
      <trkpt lat="47.17178" lon="9.22359"></trkpt>
      <trkpt lat="47.17203" lon="9.22302"></trkpt>
      <trkpt lat="47.17154" lon="9.22255"></trkpt>
      <trkpt lat="47.17124" lon="9.22171"></trkpt>
      <trkpt lat="47.17092" lon="9.22105"></trkpt>
      <trkpt lat="47.17058" lon="9.22031"></trkpt>
      <trkpt lat="47.17017" lon="9.21967"></trkpt>
      <trkpt lat="47.16976" lon="9.21910"></trkpt>
      <trkpt lat="47.16956" lon="9.21835"></trkpt>
      <trkpt lat="47.16935" lon="9.21766"></trkpt>
      <trkpt lat="47.16922" lon="9.21691"></trkpt>
      <trkpt lat="47.16910" lon="9.21607"></trkpt>
      <trkpt lat="47.16880" lon="9.21531"></trkpt>
      <trkpt lat="47.16850" lon="9.21454"></trkpt>
      <trkpt lat="47.16889" lon="9.21488"></trkpt>
      <trkpt lat="47.16944" lon="9.21522"></trkpt>
      <trkpt lat="47.16992" lon="9.21562"></trkpt>
      <trkpt lat="47.17044" lon="9.21601"></trkpt>
      <trkpt lat="47.17036" lon="9.21528"></trkpt>
      <trkpt lat="47.16989" lon="9.21443"></trkpt>
      <trkpt lat="47.16946" lon="9.21356"></trkpt>
      <trkpt lat="47.16935" lon="9.21263"></trkpt>
      <trkpt lat="47.16934" lon="9.21166"></trkpt>
      <trkpt lat="47.16959" lon="9.21086"></trkpt>
      <trkpt lat="47.16969" lon="9.21003"></trkpt>
      <trkpt lat="47.16981" lon="9.20917"></trkpt>
      <trkpt lat="47.16995" lon="9.20840"></trkpt>
      <trkpt lat="47.17018" lon="9.20763"></trkpt>
      <trkpt lat="47.17061" lon="9.20692"></trkpt>
      <trkpt lat="47.17113" lon="9.20637"></trkpt>
      <trkpt lat="47.17123" lon="9.20537"></trkpt>
      <trkpt lat="47.17106" lon="9.20430"></trkpt>
      <trkpt lat="47.17088" lon="9.20298"></trkpt>
      <trkpt lat="47.17070" lon="9.20169"></trkpt>
      <trkpt lat="47.17020" lon="9.20054"></trkpt>
      <trkpt lat="47.16945" lon="9.20012"></trkpt>
      <trkpt lat="47.16929" lon="9.19937"></trkpt>
    </trkseg>
  </trk>
</gpx>
