<?xml version="1.0" encoding="UTF-8"?>
<gpx version="1.1" creator="sigerst-import" xmlns="http://www.topografix.com/GPX/1/1">
  <trk>
    <name>wildenburg</name>
    <trkseg>
      <trkpt lat="47.19988" lon="9.37018"></trkpt>
      <trkpt lat="47.20015" lon="9.37000"></trkpt>
      <trkpt lat="47.20050" lon="9.37002"></trkpt>
      <trkpt lat="47.20110" lon="9.37074"></trkpt>
      <trkpt lat="47.20091" lon="9.37135"></trkpt>
      <trkpt lat="47.20181" lon="9.37234"></trkpt>
      <trkpt lat="47.20193" lon="9.37234"></trkpt>
      <trkpt lat="47.20224" lon="9.37188"></trkpt>
      <trkpt lat="47.20286" lon="9.37195"></trkpt>
      <trkpt lat="47.20304" lon="9.37179"></trkpt>
      <trkpt lat="47.20316" lon="9.37134"></trkpt>
      <trkpt lat="47.20329" lon="9.37097"></trkpt>
      <trkpt lat="47.20338" lon="9.37124"></trkpt>
      <trkpt lat="47.20335" lon="9.37200"></trkpt>
      <trkpt lat="47.20349" lon="9.37260"></trkpt>
      <trkpt lat="47.20360" lon="9.37367"></trkpt>
      <trkpt lat="47.20391" lon="9.37436"></trkpt>
      <trkpt lat="47.20392" lon="9.37626"></trkpt>
      <trkpt lat="47.20411" lon="9.37666"></trkpt>
      <trkpt lat="47.20440" lon="9.37662"></trkpt>
      <trkpt lat="47.20484" lon="9.37566"></trkpt>
      <trkpt lat="47.20505" lon="9.37486"></trkpt>
      <trkpt lat="47.20533" lon="9.37408"></trkpt>
      <trkpt lat="47.20556" lon="9.37392"></trkpt>
      <trkpt lat="47.20555" lon="9.37275"></trkpt>
      <trkpt lat="47.20541" lon="9.37156"></trkpt>
      <trkpt lat="47.20573" lon="9.37135"></trkpt>
      <trkpt lat="47.20605" lon="9.36791"></trkpt>
      <trkpt lat="47.20641" lon="9.36680"></trkpt>
      <trkpt lat="47.20645" lon="9.36597"></trkpt>
      <trkpt lat="47.20608" lon="9.36507"></trkpt>
      <trkpt lat="47.20577" lon="9.36429"></trkpt>
      <trkpt lat="47.20555" lon="9.36360"></trkpt>
      <trkpt lat="47.20525" lon="9.36264"></trkpt>
      <trkpt lat="47.20514" lon="9.36223"></trkpt>
      <trkpt lat="47.20520" lon="9.36144"></trkpt>
      <trkpt lat="47.20506" lon="9.36086"></trkpt>
      <trkpt lat="47.20506" lon="9.36083"></trkpt>
    </trkseg>
  </trk>
</gpx>
